,streetAddress,postalCode,latitude,longitude,state,zpid
0,9539 Clatsop Dr,80925,38.73167,-104.650375,co,247509225
1,1722 N Chelton Rd,80909,38.857857,-104.76569,co,13602165
2,6530 Burrows Rd,80908,39.003345,-104.70591,co,13535937
3,18202 E Nassau Drive,80013,39.64279,-104.77598,co,13097640
4,8495 Rain Dance Ct,80920,38.955364,-104.756096,co,13561330
5,10520 Romblon Way,80234,39.88701,-105.009056,co,12967801
6,292 S Salem Court,80012,39.7117,-104.83671,co,13040426
7,2689 S Patton Court,80219,39.668194,-105.03898,co,13383661
8,215 S Julian Street,80219,39.71293,-105.03158,co,13342434
9,7605 Marmot Poin,80922,38.8974,-104.68663,co,2062540395
10,4467 Blue Grouse Pt,80922,38.894093,-104.68497,co,2082166256
11,12051 E Harvard Avenue  Unit 105,80014,39.67085,-104.847984,co,13054312
12,1645 Race Street,80206,39.74248,-104.96381,co,13321721
13,1821 Valley View Ln,80524,40.613174,-105.07063,co,13926414
14,16544 E Kansas Place,80017,39.695217,-104.795944,co,13070129
15,5562 Fundy Street,80249,39.797092,-104.75773,co,72293761
16,975 Glenrock Dr,80926,38.68559,-104.846535,co,13674048
17,2951 Richard Dr APT 3,81301,37.29643,-107.85129,co,61264728
18,Pine Ave,81123,37.510426,-105.55069,co,2060776262
19,2121 E 11th St,81001,38.278355,-104.5722,co,14007383
20,7440 S Blackhawk Street  Unit 8204,80112,39.582813,-104.82193,co,61207983
21,824 S Dale Court,80219,39.7015,-105.02123,co,13360081
22,3725 N Carefree Cir,80917,38.884434,-104.74979,co,13587738
23,1738 Silver Leaf Dr,80538,40.415432,-105.051,co,13859397
24,846 Pine Tree Dr,81122,37.328785,-107.58548,co,307625540
25,825 Crestline Dr,80916,38.820347,-104.74626,co,13621169
26,2874 Echo Park Drive,80104,39.32015,-104.83123,co,123457010
27,9490 Mosaic Hts,80817,38.69401,-104.69594,co,181568582
28,7678 S Holland Way,80128,39.576912,-105.10274,co,13833169
29,236 S Tucson Circle,80012,39.71215,-104.83467,co,13040396
30,1641 Beaver Brook Canyon Road,80439,39.706463,-105.417114,co,13268185
31,14231 E County Line Rd,80504,40.233273,-105.05615,co,13240750
32,60 GCR 4106,80446,40.060394,-105.9184,co,2060711663
33,204 Versailles Street,80603,40.005474,-104.72006,co,14093726
34,7120 Cotton Dr,80923,38.93554,-104.75184,co,13571913
35,350 Jenkins Ranch Rd,81301,37.285385,-107.84737,co,247251009
36,102 Keystone Dr,80550,40.521713,-104.86221,co,68058719
37,17850 Countdown Dr,80831,39.01412,-104.49629,co,13530558
38,10603 Cross Country Lane,80125,39.48462,-105.08527,co,82024405
39,2870 Flintwood Road,80116,39.40068,-104.68398,co,13478548
40,21091 E Flora Place,80013,39.65732,-104.74107,co,58888250
41,5855 Vance Street  Unit 202,80003,39.802635,-105.0795,co,51407506
42,19790 Bright Wing Trl,80908,39.122936,-104.763374,co,13554128
43,771 Stone Creek Dr #1,81620,39.622402,-106.49484,co,13508794
44,531 26th Ave Ct,80634,40.427372,-104.72369,co,14058545
45,115 Cottage Ln,81212,38.453014,-105.22462,co,218698447
46,1566 26th St SW,80537,40.365566,-105.099365,co,13892679
47,876 Shade Tree Dr,80550,40.43761,-104.9126,co,246632964
48,1337 College Ave,81212,38.45063,-105.23166,co,218693855
49,6121 W 77th Place,80003,39.83734,-105.063416,co,13704458
50,7865 York Street  Unit 2,80229,39.839924,-104.96062,co,13000843
51,23855 Texas Longhorn Trl,80808,38.834137,-104.386024,co,13530052
52,9411 Newton Street,80031,39.868137,-105.03726,co,12979931
53,2639 S Zephyr Court,80227,39.66888,-105.085625,co,13789376
54,7747 Blue Heron Ct,80817,38.66749,-104.684525,co,64459430
55,1738 Thrive Dr,80550,40.453815,-104.94306,co,338265763
56,3106 Gem Dr,81005,38.22685,-104.64692,co,14041793
57,351 Gun Barrel Rd,81147,37.197613,-107.1654,co,235410919
58,19570 E Us Highway 24  Lot 12,80863,38.975395,-105.03931,co,2061585375
59,17107 Campion Way,80134,39.524628,-104.791214,co,13467829
60,7251 Winter Berry Lane,80108,39.486378,-104.90484,co,67450235
61,4860 Rushford Place,80923,38.917477,-104.73192,co,13573798
62,3220 Van Teylingen Dr APT G,80917,38.878487,-104.76213,co,13594599
63,435 Rose Finch Circle,80129,39.531662,-104.990486,co,13447986
64,4862 Lalli Road,81133,37.50501,-105.28849,co,2060672600
65,5393 E Hamilton Avenue,80104,39.364605,-104.8067,co,13494766
66,2724 Brooksedge Vw,80910,38.8014,-104.777084,co,67151250
67,2095 S Broadway,81507,39.073277,-108.66047,co,13976821
68,2303 Lakeview Ave,81004,38.23517,-104.63823,co,14038455
69,304 E 11th St,81433,37.809715,-107.663055,co,194383494
70,579 Meadow Drive,80440,39.10804,-106.10102,co,13982934
71,16486 Stoneleigh Road,80651,40.24436,-104.67458,co,250246078
72,3874 S Nucla Street,80013,39.646656,-104.79465,co,13098264
73,2727 W 107th Court  Unit C,80234,39.890743,-105.02096,co,12966792
74,1175 Normandy Rd,81403,38.468956,-107.89721,co,111198447
75,2500 W 4th St,80631,40.429874,-104.72035,co,14058474
76,1835 Rice Street,80501,40.19288,-105.119484,co,13236999
77,1016 Bromefield Dr,80817,38.666813,-104.67117,co,13553561
78,16210 S Elk Creek Road,80470,39.419666,-105.31838,co,13845583
79,14077 Wamblee Trail,80433,39.458927,-105.31949,co,13845373
80,255 N County Highway 67,80135,39.36971,-105.11594,co,13488808
81,50 Aspen Lane,80439,39.67397,-105.423035,co,13268559
82,1400 S Collyer Street  Lot 170,80501,40.13977,-105.0956,co,13262506
83,80 Sunshine Loop,80440,39.213486,-105.997955,co,67827360
84,90 E Falcon Dr,81007,38.324776,-104.73656,co,14021106
85,1410 Tamarisk Dr,80906,38.78176,-104.80118,co,13630121
86,2944 Barnstormer St UNIT 4,80524,40.595352,-105.022156,co,338122150
87,401 S Ridge St #10,80424,39.47816,-106.04439,co,194071738
88,2525 S Dayton Way  Unit 1105,80231,39.67069,-104.87565,co,13411094
89,1454 N Moonbeam Dr,81007,38.392876,-104.69137,co,98325399
90,14790 Road 37,81328,37.42632,-108.371765,co,117919556
91,642 N Logan Street,80203,39.72642,-104.982,co,13334224
92,1108 York Street,80206,39.733696,-104.95946,co,13326390
93,1901 Armitage Springs Rd,81230,38.302525,-107.29842,co,2097987741
94,1852 Aspen Trail Rd,81252,38.19158,-105.35286,co,194792645
95,3500 Swanstone Dr UNIT 2,80525,40.539326,-105.02257,co,13869074
96,222 S Logan Street,80209,39.712605,-104.982376,co,13345470
97,3340 W 94th Avenue,80031,39.86742,-105.029755,co,12981284
98,5215 S Crocker Street,80120,39.622402,-105.00802,co,13151652
99,6142 Lehman Dr,80918,38.919064,-104.7905,co,13578162
100,1140 Carbon Jct APT 15,81301,37.232746,-107.86328,co,72304384
101,7238 Red Cardinal Loop,80908,38.948547,-104.693855,co,121868046
102,13635 E Bates Avenue  Unit 112,80014,39.66254,-104.83163,co,13058190
103,3755 S Cherokee St,80110,39.64843,-104.99156,co,13142982
104,1326 Kalamath Street,80204,39.737404,-104.99957,co,245913032
105,3045 Long Creek Grv,80922,38.87578,-104.69678,co,13541637
106,21st St N,81123,37.329075,-105.60008,co,2077514484
107,545 Elk Ridge Trl,81154,37.692635,-106.58169,co,115560815
108,18415 Main St,80831,39.028156,-104.4837,co,13530538
109,323 Lake Street,80701,40.250782,-103.797226,co,194091085
110,4600 S Utica Street,80236,39.633423,-105.04523,co,13428621
111,7665 S Ingalls Street,80128,39.577805,-105.06477,co,13836903
112,17925 E Prentice Drive,80015,39.620876,-104.77931,co,13116479
113,127 Prospect Street,80813,38.75057,-105.1746,co,62718278
114,12537 Mcgarrity Avenue,80134,39.48866,-104.78504,co,337041378
115,1285 Colorado Boulevard  Unit 8,80206,39.736195,-104.94104,co,2060666732
116,9056 Gale Boulevard  Unit 4,80260,39.86201,-104.99983,co,58651411
117,935 Saturn Dr UNIT 227,80905,38.807037,-104.84486,co,13670966
118,288 Greenhorn View Ln,81089,37.51295,-104.76038,co,2060679571
119,1437 N Chuckwagon Ln,81007,38.392612,-104.658104,co,109720955
120,1469 Roland Drive,80421,39.44107,-105.418045,co,13983551
121,836 Revere Street,80011,39.7303,-104.84143,co,13032758
122,411 1/2 W Main St,81403,38.47619,-107.884926,co,2060711625
123,155 Steele Street  Unit 412,80206,39.71888,-104.95015,co,2082766662
124,1901 26th Ave Ct,80634,40.40912,-104.72384,co,157441791
125,2927 Sapphire Ct,81504,39.089123,-108.50931,co,13953097
126,3130 Angel Ter,80904,38.879074,-104.911674,co,181707404
127,4596 S Acoma,80110,39.633278,-104.98877,co,13147996
128,5255 S Logan Street,80121,39.621346,-104.982346,co,13150438
129,1002 Lilac Drive,80603,40.00889,-104.712494,co,14094414
130,1049 Hill St,81641,40.040764,-107.92106,co,104597509
131,595 Straight Creek Dr #106,80435,39.639744,-106.04328,co,194086035
132,926 Cheyenne Blvd,80905,38.801983,-104.84473,co,13671198
133,117 Easter Hill Dr,81507,39.0736,-108.63338,co,13972194
134,386 Northway Ln,80545,40.9769,-105.707,co,13858665
135,271 Masters Pl,81154,37.699394,-106.68768,co,115561167
136,1281-129 County Rd,81601,39.56079,-107.29455,co,62912181
137,1754 Harrison Blvd,46385,41.48455,-87.08215,in,81505711
138,13106 Knights Way,46037,39.97926,-85.90931,in,139016454
139,2317 E Clayton Dr,47802,39.36506,-87.38123,in,77140398
140,14434 Worthington Blvd,46038,39.99861,-85.99163,in,94401765
141,2611 N Stuyvesant Ln,46350,41.645184,-86.81202,in,85534790
142,809 Forest Boulevard South Dr,46240,39.900043,-86.144356,in,1260366
143,181 Chateau Ln,46311,41.48134,-87.51977,in,73285967
144,701 Indiana Ave,46176,39.52355,-85.76403,in,85698750
145,550 N Oriental St,46202,39.775524,-86.135635,in,1106338
146,9400 W State Road 48,47404,39.17083,-86.67498,in,85595046
147,6227 Hardegan St,46227,39.67708,-86.12462,in,1174891
148,824 Pine Lake Dr,46143,39.58192,-86.122444,in,85464743
149,1519 6th Ave,47807,39.48273,-87.39236,in,77123330
150,8504 Sargent Ln,46256,39.901424,-86.01834,in,1162178
151,5679 W County Road 350 S,46121,39.70887,-86.62801,in,128499312
152,4041 Bayou Creek Rd,47712,37.936184,-87.66942,in,77091612
153,411 Danbury Dr,46526,41.59091,-85.8757,in,138638150
154,5281 Roxbury Rd,46226,39.849148,-86.07379,in,1148557
155,4323 Crest Dr,47905,40.42828,-86.82578,in,50623134
156,51858 Meadow Crest Dr,46628,41.73932,-86.30073,in,77054500
157,269 S Furlong Dr,47905,40.41104,-86.80249,in,50626545
158,7777 N Breeding Road,47231,38.851784,-85.47293,in,85421559
159,751 Piedmont Dr,46074,40.007706,-86.17164,in,115580398
160,13152 E Stephen Dr,47232,39.13255,-85.77735,in,102834542
161,74 S 18th St,47374,39.82738,-84.87836,in,85778950
162,3720 Glencairn Ln,46205,39.838158,-86.103966,in,1263118
163,7165 N Detroit Rd,46552,41.71131,-86.53441,in,85522127
164,10855 Cannonade Ct,46234,39.795177,-86.3295,in,85304222
165,7653 N Creek Rd,46071,40.150646,-86.5306,in,85113844
166,8332 Emerson Dr,46373,41.446503,-87.47263,in,316588360
167,238 Pottawattomi Dr,46516,41.691105,-85.97877,in,50606493
168,6118 E Concourse Ct,46113,39.620598,-86.313644,in,85612322
169,149 W 46th St,46208,39.839138,-86.16119,in,1249693
170,901 N Lincoln Park Dr,47711,37.985386,-87.52779,in,94611401
171,940 Quail Ridge Dr,46304,41.629112,-87.071785,in,81499633
172,21539 Kern Rd,46614,41.60881,-86.28306,in,77002866
173,98 Lake Hart,46158,39.567383,-86.429985,in,85616295
174,225 W Wickersham Dr,46901,40.486362,-86.16956,in,94423189
175,513 N Water Street,47167,38.61073,-86.10181,in,85761594
176,11035 Limbach Cir,46236,39.89238,-85.97248,in,1161640
177,1625 N Jay St,46901,40.501755,-86.123314,in,85375097
178,1122 Wellington Ter,46375,41.50343,-87.47931,in,73309195
179,7117 Koldyke Dr,46038,39.962807,-86.04548,in,73224156
180,11604 Red Cedar Cv,46845,41.189835,-85.07655,in,180465529
181,1738 Woodland Dr,46514,41.709255,-85.922226,in,70485208
182,6419 Thistle Dr,46224,39.81455,-86.27261,in,1309106
183,3906 S 500 E #SR-19,46902,40.421703,-86.03129,in,2060673959
184,8998 W Washington St,46922,41.13802,-86.41439,in,231344735
185,230 Parkview Dr,46184,39.556553,-86.09686,in,85458636
186,68 S Timber Dr,46385,41.42427,-87.15699,in,89778528
187,9602 E 86th St,46256,39.91289,-85.998436,in,1151090
188,928 W Madison St,46563,41.344357,-86.31989,in,85561604
189,1439 Truman St,46320,41.612606,-87.494,in,73366083
190,12352 Ontario Pl,46303,41.387867,-87.47165,in,2060678728
191,2905 Highwoods Dr E,46222,39.815525,-86.20789,in,1298611
192,7627 Adams Rd,47905,40.371895,-86.76094,in,65281157
193,1100 E Bristol St,46514,41.702892,-85.96317,in,50602192
194,105 S Brown St,46068,40.379303,-86.08692,in,85730207
195,6001 Tybalt Cir,46254,39.86454,-86.26683,in,1208378
196,2414 Olive Ct,47714,37.97458,-87.51921,in,77102320
197,7816 Hwy 150,47124,38.358616,-85.9538,in,85233767
198,702 E Camden Dr,46825,41.12118,-85.1333,in,73203008
199,1531 N College Ave,46202,39.787403,-86.144264,in,1114365
200,243 Leerkamp Dr,46131,39.45626,-86.05289,in,85472543
201,104 W Front St,46923,40.585064,-86.67359,in,85131112
202,1131 E Fox St,46613,41.65237,-86.2335,in,99220474
203,51469 County Road 5,46514,41.74628,-86.02869,in,50590357
204,3287 Hanover Dr,47909,40.379726,-86.873215,in,50660194
205,707 E Moss Creek Dr,47401,39.137077,-86.519424,in,85587622
206,9990 State Route 17 Rd,46563,41.331734,-86.4051,in,2061983838
207,11842 Calzia Ln,46229,39.78243,-85.95391,in,1238214
208,2310 E 56th St,46220,39.85529,-86.12287,in,1240751
209,2371 Willow Circle Dr,46143,39.58207,-86.17335,in,85450291
210,12564 Castle Pine Dr,46060,40.02139,-85.94284,in,249701183
211,13237 Abbots Pl,46033,39.982327,-86.090034,in,73268831
212,3702 Cora Ct SUITE B,47630,37.982662,-87.40441,in,2060677996
213,318 Walnut St,46140,39.78722,-85.77436,in,85287991
214,14404 W Main St,47334,40.124256,-85.556206,in,85205718
215,7449 E State Road 4,46574,41.567875,-86.55613,in,94494760
216,1307 N Gale St,46201,39.78484,-86.105606,in,1071846
217,4028 Steelewater Way,46235,39.830807,-85.968124,in,97859874
218,2526 Farrington St,47803,39.456825,-87.377495,in,77128950
219,3021 44th St,46322,41.539097,-87.45577,in,73296421
220,1116 Ranike Dr,46012,40.125248,-85.65886,in,80675642
221,11527 Independence Way,47172,38.424217,-85.802986,in,124209188
222,10130 Bent Tree Ln,46037,39.93471,-85.988716,in,99135396
223,123 Arabian Ct,46184,39.564598,-86.104546,in,85457575
224,3104 W 12th St,46011,40.10414,-85.72544,in,80675508
225,1835 Elderberry Ct,46307,41.4157,-87.340034,in,73316200
226,1227 E 4th St,46140,39.789528,-85.751205,in,85289160
227,9554 Luebcke Ln,46307,41.44493,-87.34216,in,73380950
228,1009 Buffalo Run Way,46227,39.642273,-86.140915,in,1191914
229,439 Pleasantview Dr,46142,39.622646,-86.16029,in,85445046
230,2821 Ruckle St,46205,39.8078,-86.14808,in,1096476
231,12833 Ramsgate Ct,46038,39.974747,-85.990875,in,73274346
232,237 N Beville Ave,46201,39.7706,-86.12266,in,1094929
233,20633 Baltimore Oriole Dr,46507,41.716797,-85.863525,in,82758653
234,8816 Green Branch Ln,46256,39.91567,-85.99147,in,1156189
235,3942 Channing Cir,46240,39.885136,-86.09997,in,1267173
236,11829 Cline Ave,46307,41.40294,-87.43059,in,73383147
237,1350 Georgetown Lanesville Road,47122,38.29231,-85.98078,in,214165670
238,510 W Lexington Ave,46516,41.684654,-85.97981,in,62626031
239,386 Brentwood Drive,47250,38.751125,-85.393776,in,85425635
240,5821 Shipwatch Ln,46237,39.65109,-86.06668,in,59811385
241,624 W University Ave,47303,40.197975,-85.39243,in,85201484
242,2927 E County Road 1025 Rd S,47140,38.400337,-86.40512,in,2061692352
243,1437 N Berwick Ave,46222,39.786842,-86.2181,in,1293551
244,7330 Pollard St,46268,39.884933,-86.240135,in,1193200
245,12078 W 94th Pl,46373,41.447918,-87.48072,in,73402895
246,5707 Sugar Berry Lane,47130,38.366272,-85.70028,in,119412616
247,8387 N Waverly Park Rd,46151,39.54932,-86.277176,in,2061051875
248,10611 Cricklewood Dr,47630,37.949852,-87.44324,in,85753454
249,8128 E 124th Pl,46307,41.391937,-87.23686,in,99179107
250,820 Crossbridge Ct,46123,39.750732,-86.42456,in,85311895
251,168 E Garfield St,46914,40.65396,-86.10034,in,94510083
252,1019 Taylor Ave,47714,37.957115,-87.54697,in,94609552
253,9277 Green Meadow Dr,46303,41.41839,-87.44261,in,2061355982
254,346 Arlington Ct,46383,41.45881,-86.999115,in,89782670
255,1203 Shelby St,46176,39.512653,-85.78392,in,85700336
256,5024 N 800 E,46552,41.67889,-86.546104,in,85545651
257,6945 Tree Top Ln,46062,40.032475,-86.048775,in,73213600
258,930 N Grant St W,47906,40.435375,-86.9102,in,2060721838
259,544 W 8th St,46544,41.655514,-86.18778,in,77012741
260,1195 Texas Pike,47460,39.307755,-86.7812,in,231398023
261,5634 W State Road 46,47404,39.22362,-86.60716,in,102875426
262,1029 W Lexington Ave,46514,41.683495,-85.99018,in,50608146
263,1859 Wedgewood Pl,46123,39.73587,-86.36725,in,2093846985
264,325 Harts Ford Way,46112,39.827744,-86.37085,in,85317478
265,551 Ferry St,46992,40.801563,-85.83098,in,85736627
266,209 Orchard Blvd,46038,39.9674,-86.02942,in,73224627
267,0 E Fairground Rd,47037,39.134674,-85.25775,in,2067263148
268,3205 E Sumner Ave,46237,39.715458,-86.110954,in,1182744
269,6959 Ralston Ave,46220,39.88137,-86.13128,in,112849429
270,9050 Northeastern Ave,46239,39.70704,-86.00734,in,1128273
271,1315 E 126th St,46033,39.970768,-86.10558,in,73269200
272,51881 Courtland Dr E,46637,41.739956,-86.218315,in,77039977
273,394 S Alvord Blvd,47714,37.974014,-87.524445,in,77099903
274,2289 Sandwood St,46368,41.58514,-87.15511,in,89783343
275,5330 Red Hawk Ln,46142,39.629555,-86.20239,in,85445936
276,7711 Owens Dr,47630,37.971123,-87.39022,in,97324678
277,812 Northwood Blvd,46805,41.09531,-85.12935,in,73204877
278,2411 N 400 W,46350,41.63979,-86.776695,in,118698249
279,1723 Orkney Ln,46774,41.05754,-85.00614,in,73131288
280,116 Prairie Pkwy,46112,39.833126,-86.399345,in,85317787
281,3209 Broadway Ave,47712,37.96119,-87.6156,in,77077057
282,1220 Grayston Ave,46750,40.89133,-85.476326,in,85389546
283,9266 Green Meadow Dr,46303,41.41839,-87.44261,in,2060733058
284,3704 Erin Dr,46235,39.82429,-86.004005,in,1230994
285,6010 E 109th Ave,46307,41.42071,-87.263084,in,73377179
286,1702 Elm St,47201,39.215904,-85.90735,in,85099853
287,121 Jazer Ln,27105,36.111687,-80.24586,nc,69544231
288,5302 Crystal Court,28409,34.140617,-77.883644,nc,54342249
289,5904 Endsley Ct,27610,35.735123,-78.539276,nc,65332868
290,1088 Oakbluff Dr,28147,35.67108,-80.551414,nc,93074588
291,579 Hyde Park Dr NE,28025,35.42612,-80.59491,nc,5687826
292,6204 Tether Ct,27358,36.20119,-79.84887,nc,5995103
293,4905 W Friendly Ave,27410,36.091877,-79.870964,nc,5923651
294,4006 Thetford Rd,27707,35.934486,-78.9635,nc,49992311
295,6 Cobbleridge Ct,27713,35.920532,-78.938934,nc,49998157
296,7015 Cedar Rd,27332,35.39707,-79.108345,nc,107003368
297,909 Corbett Avenue N,27893,35.739784,-77.91161,nc,107088231
298,553 Hardaman Road,28607,36.212406,-81.60428,nc,102350856
299,104 Conrad Ct,28312,35.03691,-78.75665,nc,53680027
300,301 W Morgan St,28170,34.965073,-80.079384,nc,68701176
301,2900 Vinton Street SW,28462,33.929424,-78.33375,nc,78231368
302,1202 Julian St,27406,36.05955,-79.77248,nc,5909489
303,2108 Ramseur St,27610,35.7732,-78.61108,nc,6398826
304,115 Dogwood Knob #A,28774,35.11946,-83.04139,nc,2060669151
305,113 Sandpiper Palisades St,28792,35.3875,-82.46028,nc,51661052
306,904 Briarwood St,27320,36.327503,-79.674675,nc,70154647
307,2805 Kentwood St,27405,36.086273,-79.75609,nc,5919502
308,144 Bridlepath Ln,28117,35.557713,-80.89366,nc,6054160
309,607 Coulwood Dr,28214,35.29733,-80.94578,nc,6148961
310,3180 44th Avenue Dr NE,28601,35.79516,-81.26526,nc,71950180
311,194 Highland Dr,28906,35.144737,-84.17075,nc,2061961649
312,352 Stoney Creek Dr,27332,35.30472,-79.08124,nc,71872763
313,602 W Fort Macon Road UNIT 114,28512,34.701965,-76.746635,nc,102020160
314,4407 McDermott Dr,27705,36.05104,-79.02429,nc,60076921
315,6404 Austin Creek Dr,27587,35.95776,-78.48018,nc,50120356
316,100 Hemlock Ln,28906,35.084164,-83.93406,nc,230512773
317,231 N Hoover Rd,27703,35.993614,-78.85874,nc,50007178
318,306 Carriage Ln,28376,34.98922,-79.07424,nc,106987895
319,5416 Ruth Dr,28215,35.24849,-80.76036,nc,6199225
320,103 Marilyn Cir,27513,35.76626,-78.81436,nc,6409469
321,1699 Old Hendersonville Hwy,28768,35.254456,-82.69937,nc,2086813886
322,341 N Sandy Hook Road,27973,36.345257,-76.06921,nc,2141895072
323,11 Timbers Edge Ln,28730,35.483208,-82.40469,nc,5630877
324,487 Greywalls Ct,28311,35.10775,-78.88881,nc,53671314
325,405 Brierridge Dr,27502,35.728878,-78.89995,nc,50113119
326,905 W 25th St,27105,36.12079,-80.26149,nc,5759337
327,3203 Sally Ln,28650,35.616333,-81.16701,nc,71943228
328,805 Nuttree Pl,27606,35.76964,-78.69925,nc,6448102
329,601 N Willow Street,28358,34.620907,-79.00082,nc,220548700
330,3403 Farm Lake St,27282,36.035637,-79.937836,nc,6045584
331,9804 Cooper Run Ln,28269,35.346336,-80.77938,nc,6141409
332,1801 Sandcrest Drive,28379,34.954178,-79.75137,nc,236428293
333,126 N Washington St,28052,35.262608,-81.214264,nc,5849494
334,605 N Johnson St,27504,35.384327,-78.54134,nc,337082616
335,15091 Joe Brown Hwy,28906,35.194847,-84.14086,nc,106956398
336,2178 Jacks Dr,28364,34.753624,-79.297806,nc,78334258
337,312 Queen Street,28401,34.22654,-77.94423,nc,54310779
338,3685 Brick Church Rd,27215,36.00556,-79.55761,nc,82675104
339,122 Woodbury Farm Drive,28540,34.772163,-77.51626,nc,113197249
340,126 Pasture Lane,28464,34.771683,-78.01079,nc,251301735
341,412 Maye St,28174,34.990166,-80.46379,nc,6363189
342,4425 Harborgate Rd,28348,34.96887,-78.919205,nc,87749205
343,439 Fulton St,27217,36.105682,-79.42477,nc,51238264
344,206 Cornelia Dr,27253,36.04979,-79.39522,nc,51240557
345,506 North Pointe Drive,27530,35.460136,-78.00152,nc,224162255
346,447 Scrub Oaks Drive,28443,34.42005,-77.65732,nc,249889561
347,330 Barrington Park Ln,27284,36.119717,-80.11439,nc,5827409
348,3602 Kirby Smith Drive,28409,34.177635,-77.88921,nc,54333212
349,157 Rosemary Avenue,28539,34.68538,-77.20823,nc,122483643
350,5715 Meharry Dr,28311,35.11818,-78.926,nc,53659904
351,215 Wedgefield Circle,28454,34.70686,-77.58389,nc,102118933
352,103 S Church Street,27944,36.18844,-76.46594,nc,2146978665
353,1513 Fallen Tree Ct,28262,35.29171,-80.78822,nc,6162261
354,138 Woodland Shores Rd,27850,36.535744,-77.97851,nc,114869824
355,130 Gold St,28127,35.445087,-80.21851,nc,71399232
356,6113 Cain Forest Dr,27051,36.205975,-80.15155,nc,5823707
357,613 S McNeill St,28327,35.33787,-79.41856,nc,217465385
358,145 Mills Forest Ln,28117,35.626907,-80.88029,nc,6059361
359,2693 Jack Rd,27520,35.6029,-78.48649,nc,69117301
360,4025 Irwin Drive,28315,35.146667,-79.473724,nc,306859788
361,10809 W Bridgford Dr,27518,35.714,-78.794945,nc,6481625
362,301 Crouse Mountain Ln,27292,35.694847,-80.08187,nc,53139360
363,3117 Old Charlotte Hwy,28110,35.022034,-80.593025,nc,2060679231
364,4136 Polkville Rd,28150,35.409184,-81.63862,nc,2072151904
365,121 Spring Creek Dr,28120,35.29935,-81.06607,nc,250202950
366,102 Lands End Court,28443,34.39692,-77.78062,nc,102227123
367,101 Ridge View Drive,28540,34.746666,-77.561356,nc,199853504
368,130 Loch Ln,28326,35.215847,-79.16811,nc,306866175
369,608 McNair St,27707,35.966057,-78.90145,nc,305927728
370,12600 Old Creedmoor Rd,27613,35.97325,-78.709785,nc,6466276
371,123 Center St,28160,35.35576,-81.92854,nc,102172021
372,288 Stoneview,27312,35.803993,-79.0753,nc,217799927
373,1041 Rockland Cir SW,28027,35.38741,-80.605,nc,5661625
374,107 Goodman Cir NE,28025,35.44295,-80.6066,nc,5687020
375,1815 Tarbert Dr,27511,35.75435,-78.817535,nc,6449297
376,767 Magellan Dr,28311,35.11689,-78.89984,nc,53660988
377,19175 State Highway 27 W,28326,35.292038,-79.10423,nc,71870921
378,210 E 6th Ave,28376,34.986286,-79.221504,nc,106992488
379,216 Rockingham St,28390,35.245323,-78.94675,nc,98760763
380,156 S Brookfield Dr,28659,36.21389,-81.17294,nc,2060678718
381,1166 Summit Hills Dr,28214,35.267418,-80.92445,nc,65000378
382,183 Lakewood Drive Rd,27028,35.86004,-80.55255,nc,2061976128
383,6077 Windsor Farme Rd,27358,36.163795,-79.93065,nc,6003740
384,218 Woodstock Drive,27834,35.570045,-77.39088,nc,51434110
385,47 Ridge Ct SE,28025,35.387478,-80.554535,nc,63258938
386,6736 Willowbrook Dr APT 1,28314,35.074814,-79.014336,nc,53708834
387,2717 Bedford St,27215,36.0839,-79.49113,nc,51230521
388,3508 Hickory Nut Ct,28173,34.94614,-80.75941,nc,6347719
389,964 Kearns Ave,27106,36.11599,-80.28737,nc,5771274
390,1812 Sharpe Rd,27406,36.04527,-79.74397,nc,5978049
391,148 Black Iron Ln,28792,35.380623,-82.36298,nc,306147581
392,8009 Ghost Pony Trl,27613,35.886944,-78.71379,nc,248747945
393,1663 Pinnacle Parkway Parkway,28443,34.428417,-77.67251,nc,307021670
394,307 E Canal Street,27805,36.22987,-77.110535,nc,106944656
395,101 Mohican Dr,27549,35.959435,-78.198944,nc,215426350
396,1159 Hawkins Rd #A,27019,36.31745,-80.26159,nc,2060678437
397,3553 Castlefield Ln,28306,34.97777,-78.97054,nc,96743218
398,1926 Tweed Ln #166,27215,36.05486,-79.53113,nc,2060665929
399,7930 Sally Clark Dr,28037,35.4506,-80.97065,nc,249574266
400,1713 Guilford College Rd,27282,36.029785,-79.922226,nc,6008401
401,516 Lantern Light Way,28467,33.91162,-78.5641,nc,2060952945
402,250 Paw Paw Trl,28906,35.101543,-84.1748,nc,125503324
403,1004 Rollins Avenue,28345,34.89584,-79.71859,nc,236431780
404,4716 Buckminister Ct,28269,35.36125,-80.77873,nc,80458933
405,181 Blake Dr,28704,35.47138,-82.519196,nc,5618720
406,805 Holland Rd,27526,35.57245,-78.78149,nc,6427561
407,301 Northampton Dr,27842,36.538017,-77.86041,nc,234063424
408,6201 Creft Cir,28079,35.084827,-80.63526,nc,6351949
409,1047 N Pinkston St,27536,36.327454,-78.38672,nc,114867420
410,10617 State Highway 209,28743,35.793743,-82.86011,nc,233615585
411,3311 Heitman Dr,27107,36.053616,-80.216354,nc,5771028
412,1644 Bridgedale Drive,27803,35.940296,-77.84742,nc,74991761
413,5229 Newstead Manor Ln,27606,35.708454,-78.76862,nc,79885549
414,737 Jeffreys Road,27804,35.987698,-77.793365,nc,75001199
415,3720 New Colony Drive,28412,34.175083,-77.90915,nc,54330661
416,73 Constitution Avenue,27577,35.550087,-78.480316,nc,304711718
417,371 JC Norton Road,28693,36.44189,-81.58244,nc,230017971
418,110 Stancil Dr,27501,35.515743,-78.67864,nc,69114206
419,6916 Walnut Grove Church Rd,27541,36.19469,-79.09324,nc,88956010
420,220 W Bell St,28677,35.77969,-80.888695,nc,6082519
421,1892 Brown Road,28675,36.443283,-81.1311,nc,114780419
422,107 Swordfish Drive,28462,33.908875,-78.3323,nc,78251444
423,108 Peeler Pl,27948,36.00176,-75.70669,nc,228623256
424,84 Eaker Dr,28326,35.315933,-79.19622,nc,247885028
425,7 Court 10 Northwest Drive,28467,33.89817,-78.58921,nc,2122645024
426,2920 Pace Rd,28792,35.374077,-82.36757,nc,51663737
427,1415 Lambs Grove Road,27909,36.437454,-76.423996,nc,117556288
428,6224 Rosecroft Dr,28215,35.236305,-80.73338,nc,6207532
429,1509 S River Rd,28516,34.95979,-76.59321,nc,2060848097
430,705 Arlington St,27262,36.061813,-79.78949,nc,6028170
431,261 Mason Lane,27808,35.42832,-76.74325,nc,2061453588
432,85 Cloud Ten Rd,28713,35.44108,-83.47362,nc,233120466
433,704 Rockford Rd,27262,35.955704,-80.02908,nc,6034601
434,6230 Monticello Dr NW,28027,35.3898,-80.68091,nc,5652431
435,19 Woodward St,29611,34.842796,-82.42744,sc,10994768
436,520 Emily Ln,29673,34.717175,-82.399124,sc,11060613
437,2 Fish Hawk,29926,32.253727,-80.72483,sc,68808800
438,159 Copper Bluff Rd,29073,33.86525,-81.29393,sc,121279412
439,2912 Cliffside Dr,29209,33.968166,-80.899536,sc,11734977
440,1045 Brightwood Dr,29803,33.45734,-81.6477,sc,68385249
441,123 Stonehurst Dr,29445,33.024727,-80.066734,sc,52189500
442,104 Woodmont Ct,29072,33.971252,-81.31573,sc,55342003
443,2035 Hobbit Way,29153,33.98219,-80.37808,sc,83205915
444,1038 Oglethorpe Dr,29527,33.85652,-79.119095,sc,108784557
445,316 McLeod St,29501,34.186714,-79.77119,sc,75257925
446,709 Wantoot Blvd,29407,32.789368,-80.00331,sc,10872269
447,1757 Nantahala Blvd,29464,32.831604,-79.84211,sc,10930839
448,225 Border Dr,29841,33.524647,-81.94364,sc,52168926
449,3115 Longbow Dr,29302,34.907207,-81.86783,sc,11832692
450,221 Old Savannah Dr,29445,33.011227,-80.00708,sc,120736506
451,428 Lake Park Dr,29588,33.67394,-78.99401,sc,11162441
452,2 Coleman Ct,29609,34.897884,-82.40823,sc,11026993
453,104 Great North Ct,29223,34.10729,-80.938194,sc,11722743
454,5029 Durango Pine Ln,29842,33.417244,-81.84068,sc,123976096
455,108 Spotted Wing Ct,29642,34.824127,-82.53601,sc,70244083
456,110 Quincy Dr,29650,34.90405,-82.28542,sc,11041491
457,106 Queens Ct,29485,32.939777,-80.154076,sc,10965541
458,1787 Glenmorangie Dr,29154,33.872025,-80.35783,sc,204978826
459,124 Maid Stone Cir,29063,34.1024,-81.20232,sc,11662347
460,307 Edenton Rd,29445,33.011837,-80.016975,sc,92562989
461,1144 Rembert Rd,29412,32.72182,-79.9417,sc,10899437
462,844 Oleander Dr,29532,34.33158,-79.87524,sc,72013660
463,161 Wasson Way,29680,34.639473,-82.27786,sc,11055140
464,228 Rock Rd,29651,34.84647,-82.22157,sc,11035598
465,275 Morris Rd,29526,33.879337,-78.97891,sc,262276127
466,3953 Roberts Rd,29061,33.985268,-80.82261,sc,11746535
467,423 Isom St,29720,34.72852,-80.76622,sc,88991962
468,125 Turner Cir,29609,34.951344,-82.37188,sc,11029247
469,551 Carrick Loop,29568,33.950718,-78.7099,sc,333123171
470,21 Nushell St,29440,33.39153,-79.33489,sc,2111026523
471,196 Bearden Heights Rd,29306,34.876637,-81.94591,sc,11813007
472,541 Jessie Dr,29479,33.319836,-79.795456,sc,55321742
473,56 Saughtree Ln,29045,34.14541,-80.79934,sc,88011559
474,18 Embry St,29687,34.90884,-82.29631,sc,11090567
475,6341 Westshore Rd,29206,34.04223,-80.958336,sc,11718053
476,200 Campbell Rd,29044,33.944454,-80.71184,sc,121974284
477,303 Charney Ln,29651,35.02539,-82.23627,sc,332953340
478,217 Millwee Creek Rd,29670,34.59782,-82.74649,sc,67580287
479,1206 Red Buckeye Ct,29461,33.15578,-80.16449,sc,199228654
480,318 Shingleoak Dr #74,29710,35.10084,-81.09285,sc,2060678408
481,613 Vega Ct,29574,34.216557,-79.224304,sc,2060694864
482,144 Springfield Rd,29585,33.42875,-79.15656,sc,10979488
483,5 Ironwood Rd,29681,34.724815,-82.21124,sc,96486816
484,5140 Floran St,29203,34.04422,-81.01905,sc,11691533
485,311 Lesesne Ct,29150,33.931393,-80.36898,sc,69185461
486,181 Harbour Watch Blvd,29070,34.040516,-81.43857,sc,55340167
487,33 Driftwood Cottage Ln,29915,32.103374,-80.85538,sc,68801261
488,4541 Chesnee Hwy,29323,35.083534,-81.862015,sc,11770552
489,206 Berea Forest Cir,29617,34.899097,-82.44414,sc,2060673785
490,4409 N Ocean Blvd #212,29582,33.83439,-78.62404,sc,2064835696
491,6731 Highway 1124,29526,33.951305,-78.89154,sc,72271584
492,2549 Azalea Dr,29902,32.387596,-80.69902,sc,66660886
493,300 Beltrees Dr,29072,33.987766,-81.255684,sc,55341423
494,113 Oak Dr,29654,34.445347,-82.40651,sc,10808858
495,238 Camber Rd,29016,34.15841,-80.97308,sc,246224161
496,110 Wembley St,29209,33.97041,-80.96638,sc,11714675
497,206 Lakeside Dr,29691,34.77753,-83.06126,sc,83192006
498,103 Quendon Ct,29485,32.992218,-80.13592,sc,10959086
499,695 Edgecreek Dr,29579,33.74524,-78.86721,sc,80962983
500,42 Lighthouse Dr,29445,32.969566,-80.018684,sc,10847045
501,105 Barrister Ct,29073,33.95682,-81.178246,sc,11217297
502,105 Harvest Grove Ln,29072,33.942585,-81.30635,sc,114159926
503,162 Knotty Pine Way,29576,33.566277,-79.08033,sc,104405791
504,2908 Caroline Rose Path,29455,32.75814,-80.07187,sc,110236456
505,5212 Cressingham Dr,29707,34.93179,-80.82024,sc,102989716
506,813 Madeira Ln,29505,34.131817,-79.75592,sc,75240068
507,4413 Plantation Harbour Dr UNIT A,29566,33.85215,-78.66077,sc,2132070758
508,405 E Waterside Dr,29672,34.81171,-82.931274,sc,70957545
509,407 Maria Posada Ct,29036,34.178516,-81.27046,sc,300047826
510,66 South St,29403,32.792572,-79.93679,sc,10906125
511,171 Deerwood Ln,29340,35.09194,-81.61089,sc,70192187
512,125 Narrow Way,29073,33.93534,-81.214584,sc,144754857
513,46 Brindlewood Dr,29907,32.429375,-80.6357,sc,68804848
514,411 W Faris Rd,29605,34.818558,-82.40174,sc,11006955
515,141 Mickler Dr,29456,32.98731,-80.11773,sc,10963380
516,32 Great Bend Dr,29906,32.386654,-80.748245,sc,333040032
517,1323 Fulton Ave,29556,33.6807,-79.83846,sc,102515169
518,211 Long Island Trl,29072,33.944954,-81.282074,sc,144737416
519,282 Smyrna Rd,29045,34.252842,-80.818214,sc,83196841
520,212 N Hollywood Dr,29575,33.611225,-78.97442,sc,11169919
521,1352 Penshell Pl,29464,32.80849,-79.84414,sc,110208877
522,1824 Grimball Rd,29412,32.712284,-79.97116,sc,10867905
523,334 Byron Rd,29209,33.971996,-80.95826,sc,71271575
524,239 Shadow Pine Rd,29803,33.464146,-81.780174,sc,88983593
525,120 Fredricksburg Way,29210,34.056595,-81.13279,sc,11196494
526,110 Woodruff Ct,29803,33.52264,-81.76925,sc,52155377
527,1513 Oldenburg Dr,29429,32.892693,-79.752075,sc,125935184
528,318 Redberry Ct,29745,35.06952,-81.09029,sc,243737475
529,1676 Greenridge Dr,29526,33.764534,-78.99394,sc,262286058
530,6066 Benedict Pl,29707,35.003387,-80.88843,sc,121205922
531,313 Blue Heron Cir,29680,34.71728,-82.324646,sc,84742540
532,5378 Westchester Pl,29418,32.907917,-80.11265,sc,10968332
533,165 Zion Church Rd,29642,34.786373,-82.5904,sc,325950596
534,1503 Geer Hwy,29690,34.99176,-82.469315,sc,11031068
535,4139 Sorensten Dr,29803,33.52828,-81.69564,sc,2060675891
536,621 Lesia Ln,29526,33.795097,-79.02226,sc,11127467
537,834 Sail Ln UNIT 202,29576,33.599873,-79.07193,sc,2064788937
538,8528 Falling Leaf Ln,29420,32.915012,-80.12051,sc,67599015
539,193 N Shelmore Blvd,29464,32.818184,-79.880936,sc,82547876
540,129 River Song Rd,29063,34.103466,-81.20862,sc,11662119
541,260 Country Springs Dr,29150,33.805405,-80.347275,sc,69177770
542,1263 Park Hill Dr,29526,33.850113,-79.061,sc,2060757214
543,204 E Park Ave,29601,34.85909,-82.39932,sc,82541211
544,142 Mellard Dr,29445,32.95623,-80.01119,sc,10848145
545,721 Wesleyan Dr,29630,34.72739,-82.76478,sc,72544347
546,15 Audubon Ln,29078,34.221035,-80.751816,sc,92248796
547,314 Kaufman St,29440,33.35431,-79.28648,sc,10982110
548,11 Moise Dr,29150,33.927917,-80.34355,sc,69180171
549,609 Hillside Dr S #C-4,29582,33.815907,-78.6817,sc,2060706710
550,174 Heath Dr,29568,33.9193,-78.81309,sc,108781125
551,22 Baker Rd,29605,34.78744,-82.40662,sc,11091802
552,305 Drake Park Ave,29708,35.017143,-80.97825,sc,71260029
553,715 Cooks Cove Rdg,29710,35.091915,-81.07993,sc,90070109
554,1327 Tidway Cir,29527,33.778183,-79.160934,sc,92410829
555,52 Bagwell Cir,29605,34.82989,-82.41962,sc,10993448
556,103 Morningwood Ln,29673,34.7061,-82.371574,sc,11060075
557,17 Telfair Dr,29907,32.459568,-80.65131,sc,68804561
558,1061 Greenhill Rd,29412,32.73122,-79.93936,sc,10899676
559,1106 Laurens St NW,29801,33.582863,-81.71957,sc,52178703
560,8 Chattooga Ct,29910,32.28609,-80.86266,sc,68822505
561,25 Mizzen Ln,29676,34.830673,-82.93588,sc,70958638
562,1403 Benjamin St,29625,34.515663,-82.66013,sc,195150925
563,Hallie Martin Rd,29527,33.888454,-79.13711,sc,11101374
564,249 Pecan Grove Rd,29860,33.550846,-81.96244,sc,110177511
565,102 Calhoun St UNIT 110,29631,34.692993,-82.83576,sc,82562230
566,104 Camille St,29642,34.814503,-82.58344,sc,242979178
567,408 Sunset Dr,29172,33.9082,-81.13016,sc,144771591
568,205 Niblick Ln,29835,33.88013,-82.38213,sc,108235565
569,3706 E North St UNIT 8-K,29615,34.872704,-82.32824,sc,11047842
570,130 Turnberry Rd,29621,34.627167,-82.62269,sc,195158901
571,60 Prestigious Pl,30276,33.248547,-84.58587,ga,14416165
572,4040 Preston Oaks Pl,30038,33.66664,-84.17097,ga,61919200
573,1280 W Peachtree St NW APT 1609,30309,33.789684,-84.3888,ga,2087926892
574,3662 Lower Creek Dr,30135,33.683315,-84.69406,ga,205779461
575,6092 Camden Forrest Ct,30296,33.58927,-84.446945,ga,60022255
576,97 High St,30518,34.118034,-84.01197,ga,14839115
577,6035 Autumn Green Dr,30213,33.53419,-84.56471,ga,2060766105
578,144 Bob White Dr,30281,33.592705,-84.20513,ga,14905986
579,205 Horseshoe Dr,31093,32.654827,-83.66403,ga,49852030
580,215 Rainsong Trl,31069,32.47314,-83.69583,ga,103574166
581,2810 Favor Rd SW,30060,33.885468,-84.57099,ga,14286059
582,1063 Comanche Cir,30817,33.72763,-82.31416,ga,105317964
583,2267 Roundtop Rd,30540,34.6098,-84.55798,ga,228821600
584,1320 Crestbrook Dr,30040,34.231625,-84.17319,ga,68630510
585,6779 Houston Rd,31216,32.714962,-83.692184,ga,76329582
586,3012 The Lake Rd,30501,34.34777,-83.78763,ga,14863784
587,1868 Waverland Dr,31211,32.873844,-83.632904,ga,76337663
588,3421 Rocky Springs Ct,30062,34.012985,-84.45244,ga,171113972
589,6192 Central Church Rd,30135,33.708874,-84.77716,ga,49829757
590,2823 Joyce Ave,30032,33.739132,-84.274574,ga,14458388
591,64 Hummingbird Valley,30533,34.61324,-83.92452,ga,229289891
592,415 Joycliff Ter,31211,32.881,-83.57155,ga,14934048
593,5032 Green Oak Dr,30047,33.84438,-84.11651,ga,14746706
594,295 Merritt Dr,30044,33.91869,-84.03791,ga,14708537
595,2133 Ben Arthur Rd,39842,31.83493,-84.477745,ga,76599920
596,1605 Carlton Dr,30040,34.22515,-84.144844,ga,60952244
597,4502 Old Princeton Rdg,30506,34.368263,-83.90537,ga,83362763
598,135 Greenfield Ln,30220,33.236645,-84.79906,ga,99882795
599,95 Old South Dr,30540,34.61357,-84.54279,ga,228828341
600,15 Creekwood Dr,30265,33.397125,-84.67901,ga,14409390
601,3011 Wilma Edwards Rd,31308,32.183723,-81.5231,ga,243422287
602,9254 Union Hill Rd,30115,34.23295,-84.408844,ga,51087123
603,4383 Austin Hills Dr,30024,34.069077,-84.04178,ga,60835786
604,2522 Frost Dr SW,30008,33.891926,-84.58306,ga,14341282
605,4169 Chatham View Dr,30518,34.083466,-84.018326,ga,14832627
606,161 Turtle Ridge Ln,30540,34.590324,-84.61178,ga,228818411
607,2004 Hilda Burns Pl,30058,33.727688,-84.14254,ga,14498433
608,6629 Springfield Way,30331,33.686745,-84.603226,ga,2060714697
609,114 Newport Dr,30540,34.679245,-84.51834,ga,2062668900
610,1147 Rolling Green Dr,30102,34.076878,-84.582054,ga,51100488
611,6458 Stonelake Pl SW,30331,33.682293,-84.598404,ga,71758514
612,1342 Sir Knights Way,30045,33.96364,-83.932915,ga,14730238
613,2012 Nottingham Dr,30906,33.4068,-82.035934,ga,14973998
614,243 Oakcliff Ct NW,30331,33.76174,-84.498764,ga,35872596
615,2206 Worrall Hill Dr,30096,33.97726,-84.1066,ga,80169217
616,13 Woodhaven Ct,30120,34.1564,-84.90052,ga,55490447
617,168 Mountain View Dr,30501,34.32628,-83.83722,ga,14849842
618,191 Davidson Cir,30223,33.310463,-84.35924,ga,69897961
619,324 Veeler Rd,30728,34.69513,-85.24224,ga,118313919
620,190 Pointer Ridge Trl,30214,33.46872,-84.493614,ga,14597181
621,1553 Boulder Walk Dr,30316,33.69973,-84.32845,ga,70832564
622,70 Railside Dr,30014,33.556545,-83.840385,ga,71126664
623,3055 W Green Loop,30252,33.426804,-84.13481,ga,58507537
624,507 Myrtle Ave,31569,30.966278,-81.71741,ga,223793730
625,32 Wildwind Ln,30512,34.901615,-83.88706,ga,105420645
626,4942 Keota Run NE,30075,34.0682,-84.430115,ga,14230214
627,825 Kohl Dr,30253,33.388218,-84.20364,ga,71367996
628,188 Liberty Sq,31525,31.279257,-81.48698,ga,99381131
629,2726 Owens Ave SW,30064,33.88762,-84.63555,ga,14343006
630,406 Buck Swamp Rd,31523,31.132147,-81.611946,ga,99925676
631,5419 Ivanhoe Ct,30093,33.914314,-84.17958,ga,14773764
632,5565 Hedge Brook Dr,30028,34.308895,-84.076294,ga,98016112
633,305 Thoroughbred Trl,30655,33.81839,-83.65217,ga,88810365
634,308 Deer Crest Hts,30513,34.837273,-84.32071,ga,96829655
635,587 Bennock Mill Rd,30906,33.263573,-81.898346,ga,55141532
636,1419 Briarcliff Rd,31211,32.8651,-83.62842,ga,76339940
637,229 Mount Laurel Dr,30132,33.907986,-84.79741,ga,237719232
638,90 Skyview Dr,30224,33.17433,-84.3165,ga,69995306
639,49 Sparrow Ct,30549,34.11037,-83.55252,ga,101246336
640,1480 Gloria St,30224,33.213936,-84.25794,ga,69901708
641,238 Lakeview Dr,31211,32.942406,-83.657074,ga,103613806
642,2648 Crosscreek Rd,30815,33.394665,-82.07641,ga,14976528
643,2553 Colonial Dr,30337,33.63605,-84.472565,ga,35825509
644,3726 Tree Bark Trl,30034,33.704227,-84.23778,ga,14436645
645,121 Thornehedge Way,30228,33.45955,-84.23964,ga,58501091
646,302 Poplar Grove Ct,30189,34.13546,-84.57845,ga,51097433
647,1372 Bennett Rd,30017,33.901604,-83.993866,ga,14718320
648,508 Affirmed Ln,30004,34.128445,-84.33416,ga,71756728
649,456 McIntire Rd,30739,34.76956,-85.185104,ga,54064656
650,528 Pelican Cir,31569,30.864084,-81.588005,ga,91029781
651,4135 Gregory Manor Cir SW,30082,33.851196,-84.567856,ga,14288115
652,635 Ashley Laine Walk,30043,33.982883,-84.03231,ga,14808681
653,875 Needle Rock Dr,30083,33.80307,-84.18293,ga,14526052
654,82 Golden Grove Ln,31324,31.936916,-81.31579,ga,76359527
655,1833 Brittain Rd,30134,33.757214,-84.83229,ga,49836389
656,783 Laurel Hill Cir,31324,31.935078,-81.31246,ga,76359108
657,503 Tomahawk Trl,30188,34.12245,-84.44616,ga,51108762
658,124 Wildwood Dr,30120,34.18757,-84.78947,ga,14116979
659,2033 Cliff Creek Ct SE,30080,33.860844,-84.50087,ga,14308608
660,3594 Royal Ct,30039,33.808964,-84.03163,ga,14734637
661,5120 Thamesgate Clos,30092,33.991524,-84.224106,ga,2063700911
662,625 McRidge Rd,30546,34.939552,-83.73314,ga,105411037
663,620 River Oaks Ln,30809,33.576946,-82.14291,ga,2060673907
664,2108 Vicksburg Dr,31404,32.021004,-81.072624,ga,14176956
665,276 Corley Cir,30141,33.90206,-84.75923,ga,237722839
666,4355 Pemberton Cv,30022,34.011337,-84.23241,ga,14653154
667,15 Lydia Ct,30016,33.61623,-83.95095,ga,69856621
668,173 Sleepy Hollow Cir,30143,34.498028,-84.38141,ga,227622950
669,3337 Hinsdale Ln,30519,34.109863,-83.94649,ga,58598222
670,169 Cypress Cir,39819,30.774223,-84.734726,ga,105204114
671,15 Deer Run Rd,30294,33.627357,-84.22339,ga,14899124
672,1054 Timberwale Ln NW,30152,33.980843,-84.70834,ga,35816441
673,1090 Riverhill Dr,30621,33.835358,-83.54385,ga,227386413
674,3822 Old Vine Way,31605,30.89561,-83.28053,ga,93099965
675,582 Greene Settlement Rd,31032,33.02654,-83.57402,ga,14927953
676,3432 Jonathan Cir,30906,33.396996,-82.003174,ga,14978547
677,2870 Harper Ferry Dr,30044,33.9391,-84.08609,ga,14806255
678,867 Perennial Dr #106,30328,33.93092,-84.36027,ga,2060774801
679,109 Palmetto Ct,31522,31.192356,-81.37856,ga,99900545
680,422 E Goldmine Rd,30536,34.663784,-84.36033,ga,105257841
681,313 E 38th St #A,31401,32.054962,-81.09683,ga,2094536240
682,203 Sugar Maple Way,31548,30.815994,-81.712875,ga,298038797
683,110 Melrose Pl,31326,32.260395,-81.222694,ga,105236999
684,781 Sunlight Rd,30540,34.629616,-84.52983,ga,105264317
685,675 Poole Rd,30107,34.40262,-84.295364,ga,70010346
686,1895 Thomasville Dr SE,30315,33.700176,-84.358406,ga,35887159
687,1061 Copperville Dr,30677,33.858173,-83.45178,ga,227393691
688,330 Shenandoah Cir,30680,34.006554,-83.70187,ga,71751823
689,332 Mears St,30907,33.519344,-82.10765,ga,14212706
690,50 Kings Ct,30540,34.658756,-84.5594,ga,105261468
691,66 Southside Dr,30180,33.710648,-84.93366,ga,69944460
692,70 Larmon Forks Rd,30533,34.54761,-84.10844,ga,2060677592
693,2737 Ward Lake Ct,30294,33.65411,-84.27878,ga,59932858
694,216 Raleigh Dr,31088,32.559895,-83.66829,ga,70827340
695,395 Oak Hill Dr,30016,33.55797,-83.942345,ga,69878800
696,548 E State St,31401,32.07666,-81.08539,ga,52970257
697,3510 Roswell Rd NW APT C2,30305,33.850517,-84.38539,ga,2070580040
698,1373 N Druid Hills Rd,30319,33.853153,-84.339165,ga,14550784
699,3179 State Highway 203,31516,31.40396,-82.31751,ga,76592317
700,654 Hollowstone Ct,30052,33.86791,-83.943184,ga,87939636
701,122 Timber Mist Ln,30045,33.965572,-83.96695,ga,60831336
702,194 Branch Valley Way,30132,34.022507,-84.76515,ga,237700233
703,215 Ridge Valley Dr,30189,34.15073,-84.59041,ga,88808710
704,152 Coosa Valley Rd,30512,34.826626,-83.998245,ga,105429797
705,105 Park Pl,30281,33.60853,-84.19873,ga,14905126
706,2004 Country Place Dr,30906,33.349903,-81.982506,ga,14985270
707,1118 Village Main St,30088,33.762844,-84.18884,ga,54450511
708,200 Highland Lake Trce,30349,33.64295,-84.55391,ga,2062922543
709,29 Pmb Young Rd,30120,34.10014,-84.83783,ga,14106156
710,121 Crossover Ln,31410,32.039627,-81.0005,ga,14131106
711,753 Highway 520,31805,32.267494,-84.74188,ga,2060678380
712,426 Elder St,30213,33.577713,-84.58404,ga,35955069
713,1263 Woodbrier,30571,34.729748,-83.675316,ga,101336347
714,255 Durham Park Way,31322,32.126427,-81.25345,ga,108590443
715,10505 Woodway Dr,32837,28.412325,-81.41214,fl,46091760
716,404 STANDING OAK CT,32259,30.11266,-81.62021,fl,337205738
717,54249 FOURACRE CIR,32011,30.523363,-81.76732,fl,45946980
718,19 Rybar Ln,32164,29.500153,-81.23764,fl,70741873
719,13634 Plantation Lake Cir,34669,28.351395,-82.592285,fl,46464844
720,4404 Meadow Creek Cir,34233,27.291206,-82.48706,fl,47500069
721,4607 Highgate Dr UNIT A,33445,26.482716,-80.11723,fl,64430615
722,159 Catherine St,32110,29.451378,-81.33538,fl,44749216
723,3748 Ocita Dr,32837,28.349594,-81.43412,fl,46243696
724,1382 LINDSEY CROSSING DR,32218,30.471292,-81.60584,fl,71035112
725,30949 Stone Arch Ave,33545,28.265537,-82.303856,fl,68971804
726,3703 Needles Dr,32810,28.632599,-81.42458,fl,46215921
727,8 Criston Ct,32137,29.600086,-81.22188,fl,66139249
728,3833 Avon Ct,34711,28.509537,-81.71768,fl,66161279
729,11102 Silver Surfer Aly,34787,28.398834,-81.640175,fl,294889879
730,291 Isle Of Sky Cir,32828,28.530945,-81.190544,fl,46261090
731,4546 Treebrook Rd,32168,28.982506,-81.11925,fl,48029902
732,111 PINEWOODS ST,32081,30.0975,-81.44886,fl,98973250
733,190 GREENFIELD DR,32259,30.074179,-81.60691,fl,66772053
734,1617 Bren Lee Ct,32805,28.520782,-81.40192,fl,46048140
735,5069 BRIGHTON DR,32217,30.22468,-81.5949,fl,44548617
736,1126 NE 71st Ln,34479,29.261024,-82.123215,fl,45845546
737,7825 NE Bayshore Ct APT 502,33138,25.846376,-80.17307,fl,43828569
738,12227 Ambrosia CT,32223,30.150616,-81.60544,fl,67406750
739,1808 S Bumby Ave,32806,28.520761,-81.35192,fl,46070621
740,1008 S Val Dr,34450,28.847946,-82.31123,fl,43613825
741,7026 Jon Jon Dr,32822,28.495918,-81.292755,fl,46104048
742,521 N Stone St,32720,29.036371,-81.31593,fl,47938287
743,1860 46th St S,33711,27.751404,-82.69536,fl,47198737
744,917 W 22ND ST,32209,30.357817,-81.66787,fl,44484267
745,7123 EASTLAND ST,32208,30.384241,-81.64231,fl,44445343
746,7884 Rockford Rd,33472,26.543205,-80.17138,fl,46581581
747,13905 Bittersweet Way,33625,28.075197,-82.554405,fl,44851715
748,2641 Gately Dr W APT 2007,33415,26.639376,-80.136475,fl,46552377
749,6813 Cedar Ridge Dr,32526,30.4819,-87.325005,fl,44684018
750,1708 Woodbine Dr,33510,27.96672,-82.31172,fl,44976578
751,1158 Outlook Dr,32725,28.874302,-81.24296,fl,47975086
752,5 RIVERA LN,32164,29.510897,-81.24811,fl,66141249
753,5446 FLORAL AVE,32211,30.324154,-81.60749,fl,44530910
754,8345 County Road 109a #1,32159,28.953348,-81.96506,fl,55745272
755,4911 21st Ct E,34203,27.453821,-82.53645,fl,54707234
756,62 N Pizarro Point,34461,28.863716,-82.5203,fl,43653197
757,505 Model St,32114,29.217142,-81.03512,fl,48043811
758,4201 E Henry Ave,33610,27.999521,-82.41199,fl,45085050
759,8069 Baywind Cir,32514,30.50876,-87.17011,fl,44631517
760,3088 Layla St,32303,30.511602,-84.34555,fl,45596818
761,84 SARAH ELIZABETH DR,32259,30.09376,-81.5616,fl,125961359
762,5424 Eagle Cay Way,33073,26.300856,-80.196976,fl,42885475
763,6437 Cypressdale Dr UNIT 201,33578,27.889137,-82.34687,fl,82052263
764,8799 LANCASHIRE DR,32219,30.411491,-81.76682,fl,66133798
765,12288 DEEDER LN,32258,30.149103,-81.58133,fl,44573859
766,65 Farmsworth Dr,32137,29.582813,-81.224236,fl,44730260
767,711 17th Street Ct E,34208,27.493402,-82.543846,fl,45715382
768,1848 Sabal Palm Dr,32141,28.96539,-80.91227,fl,48088801
769,126 H L Sudduth Dr,32404,30.142307,-85.58409,fl,42754046
770,14016 Village View Dr,33624,28.075134,-82.54063,fl,44899635
771,520 Davidson St SE,32909,27.91163,-80.65727,fl,43515690
772,11121 Summer Star Dr,33579,27.78582,-82.320694,fl,68582232
773,14778 SW 143rd St,33196,25.634153,-80.43277,fl,44327853
774,3475 Tracy Ct,32754,28.694736,-80.84946,fl,43370712
775,1747 NE 51st St,33064,26.293972,-80.099655,fl,42928221
776,9031 Paolos Pl,34747,28.333517,-81.65275,fl,82515468
777,145 Rusty Gans Dr,32408,30.172146,-85.785034,fl,2065063778
778,129 Old Nichols Cir,33823,28.103947,-81.79191,fl,47396641
779,4696 Bobolink Way,32539,30.744583,-86.395485,fl,87656915
780,6505 Us Highway 301 N LOT C21,34222,27.53122,-82.49737,fl,2060673849
781,495 Terranova Cir,33884,27.96012,-81.681915,fl,98388098
782,1609 E Idell St,33604,28.02031,-82.44174,fl,45082490
783,4803 S Lakewood Dr,32404,30.14002,-85.6044,fl,42778132
784,5500 Ocean Shore Blvd APT 77,32176,29.38896,-81.0873,fl,2090287230
785,52 NE 526th St,32680,29.652815,-83.03028,fl,223005558
786,39 PAVIA PL,32259,30.111086,-81.55497,fl,306072051
787,2803 Baywood Ln,34746,28.250948,-81.42993,fl,46325249
788,1405 W 13th Pl,32771,28.79966,-81.28309,fl,47728929
789,12826 HUNTLEY MANOR DR,32224,30.2758,-81.4813,fl,44606875
790,2049 SW Tropical Ter,34953,27.281263,-80.40869,fl,47826188
791,10741 Shady Preserve Dr,33579,27.775948,-82.32969,fl,89744501
792,4965 E Sabal Palm Blvd APT 403,33319,26.200184,-80.21456,fl,42984717
793,9801 Pine Way,33635,28.037699,-82.58797,fl,2060710441
794,4408 Chantilly Way,32505,30.453922,-87.26064,fl,44665056
795,863 SW Rocky Bayou Ter,34986,27.300064,-80.37763,fl,70412292
796,10531 NW 70th Ave,32626,29.482231,-82.88863,fl,45647900
797,6218 Hampton Dr N,33710,27.789984,-82.72064,fl,47101749
798,3120 ROGERO RD,32277,30.35652,-81.58995,fl,44520576
799,600 Euclid Ave APT 1A,33139,25.776041,-80.13529,fl,2085687841
800,9030 Cypress Hollow Dr,33418,26.810005,-80.1228,fl,46858685
801,10124 Swanson Ct,34608,28.509686,-82.55662,fl,103339684
802,106 Forest Lake Dr,32926,28.357101,-80.79728,fl,43402878
803,2325 SW 59th Ave,33155,25.748735,-80.29108,fl,44186779
804,5788 GEORGE HODGES RD,32063,30.261349,-82.133804,fl,2094962452
805,3857 SANDY SHORES DR,32277,30.370016,-81.61411,fl,44516064
806,4164 Player Cir #110,32808,28.590628,-81.43081,fl,46081991
807,9871 NE 105th Ave,32618,29.477995,-82.59823,fl,2066413463
808,3080 NE 25th Ave,34479,29.217497,-82.102,fl,45860143
809,1698 NW 13th St APT 3,33486,26.361418,-80.11865,fl,46705182
810,1338 Clay St,32304,30.457796,-84.301285,fl,337139560
811,1540 Arrowhead Trl,32725,28.848673,-81.23219,fl,47990833
812,10249 Vista Cove Ln,32825,28.5619,-81.24082,fl,54440809
813,3911 Balsam Ct,34243,27.383808,-82.49005,fl,47469771
814,1190 Bass Blvd,34698,28.020035,-82.78162,fl,47191801
815,268 HUTCHINSON LN,32095,30.080011,-81.473366,fl,306070458
816,11007 Linden Dr,34609,28.460714,-82.533714,fl,44827077
817,10220 Trudy Lynn Dr,34601,28.57592,-82.346466,fl,44801745
818,7447 Candlelight Ct,34652,28.265413,-82.71625,fl,46453586
819,817 Upland Dr,32127,29.097078,-80.99954,fl,48062431
820,25332 Shamokin Dr,34601,28.563356,-82.31407,fl,44805083
821,12423 SW 107th Ct,33176,25.653242,-80.36802,fl,44286872
822,9187 Fontainebleau Blvd #403,33172,25.77786,-80.34408,fl,44146703
823,24840 SW 116th Ave #0,33032,25.536283,-80.37964,fl,2084955446
824,5935 Pecan Rd,34472,29.140097,-82.03985,fl,45926449
825,150 Englewood Isles Pkwy UNIT 406,34223,27.000376,-82.37795,fl,47581497
826,8714 N Discalfani Loop,34428,28.988869,-82.57375,fl,98382868
827,8028 BAGPIPE LN,32244,30.201496,-81.776634,fl,44428311
828,440 S Shell Rd,32720,29.016432,-81.36506,fl,104243428
829,214 Lakeview Dr,34216,27.531143,-82.734886,fl,45784610
830,8420 Tinker Rd,34655,28.215717,-82.67532,fl,46419980
831,5118 2nd Ave W,34209,27.49853,-82.61295,fl,45743768
832,378 Marion Oaks Crse,34473,29.005873,-82.19833,fl,45919938
833,262 Windsor Dr,34746,28.32205,-81.49267,fl,2084055276
834,12651 Seminole Blvd LOT 3N,33778,27.887047,-82.78191,fl,2060665701
835,25010 Lanark Rd,34601,28.514297,-82.325775,fl,44791180
836,1703 LISMORE CT,32068,30.095942,-81.7537,fl,43708103
837,633 Jetstar Ln,34677,28.04247,-82.66845,fl,164055646
838,1608 Techwood Ct,32820,28.566658,-81.115585,fl,66190561
839,6762 Winterset Gardens Rd,33884,27.966684,-81.67728,fl,47347153
840,1810 Mississippi Ave NE,33703,27.817562,-82.602745,fl,46978267
841,6171 Kari Dr,32940,28.246483,-80.68591,fl,43439506
842,101 PINE OAK DR,32177,29.631737,-81.67907,fl,47444762
843,709 Westwood Cir,33511,27.931656,-82.295586,fl,44982904
844,4383 Woodstock Dr APT C,33409,26.720303,-80.108536,fl,46531545
845,525 E Jackson St UNIT 408,32801,28.539377,-81.37042,fl,71073524
846,3178 Windchime Cir W,32703,28.66375,-81.45476,fl,47675669
847,10321 N Spaulding Dr,34433,29.011665,-82.48409,fl,81779285
848,11235 WINDTREE DR E,32257,30.171251,-81.59935,fl,44571261
849,211 N New Warrington Rd,32506,30.41272,-87.27677,fl,44673705
850,1813 Mallard Dr,32404,30.113842,-85.494675,fl,42755314
851,27138 Bent Creek Cir,32046,30.67963,-81.928055,fl,81819618
852,316 NE 7th St,33909,26.665167,-81.9672,fl,68089542
853,716 Cadez St NE,32905,28.014458,-80.57935,fl,43496954
854,4715 Montrose Ave,32127,29.096375,-80.93703,fl,48073385
855,8825 SW 136th Ter,34432,29.0966,-82.345856,fl,338068434
856,4769 Coronado Cir,32539,30.722404,-86.53655,fl,46019147
857,1003 Harwood Ave S,33974,26.536491,-81.60199,fl,103258451
858,231 6TH WAY,32148,29.629208,-81.93078,fl,47446899
859,1441 N Andrews Ave,33311,26.1454,-80.144806,fl,308874667
860,6120 SW 39th St,33314,26.073221,-80.22895,fl,43181553
861,7387 SW 103rd Ln,34476,29.07094,-82.242065,fl,45891610
862,892 Oak Leaf Ct,32714,28.644485,-81.43165,fl,47682995
863,730 Coral Dr,33904,26.546412,-81.96073,fl,45493827
864,9150 Wedge Dr,33896,28.264608,-81.654915,fl,130952287
865,12312 GLIMMER WAY,32219,30.461016,-81.76176,fl,123460532
866,187 NW CLUBVIEW CIR,32055,30.190964,-82.69276,fl,43722239
867,202 Condor Ave,33870,27.475164,-81.490875,fl,45207219
868,9 Ulster Ct,32164,29.45644,-81.17875,fl,70743081
869,8725 County Road 614a,33513,28.629192,-82.15245,fl,52952061
870,8250 Pickwick Rd,34287,27.047611,-82.249374,fl,47599851
871,11001 Essex Falls Ln,79934,31.931171,-106.40217,tx,27453769
872,9010 YETT AVE,78221,29.333578,-98.492714,tx,26318670
873,10114 Duchamp Dr,77036,29.680904,-95.55452,tx,28316718
874,9413 Shipman St,75088,32.918243,-96.51092,tx,28890959
875,1813 Wynn Ter,76010,32.71568,-97.083755,tx,29066454
876,220 S San Jacinto St,76692,31.945902,-97.32029,tx,90389487
877,13217 Baltusral Ct,75253,32.668186,-96.61732,tx,96506053
878,939 FULTON AVE,78201,29.461832,-98.509445,tx,26118110
879,6441 Sun Crest Ct,76065,32.414112,-97.004555,tx,67632165
880,4008 Twilight Dr S,76116,32.712734,-97.46669,tx,28938816
881,10842 Spring Shadows Dr,77064,29.925282,-95.5674,tx,28471534
882,18115 Arbormont Dr,77429,29.98156,-95.701164,tx,28485964
883,218 Juniper Dr,76018,32.66342,-97.111015,tx,29215938
884,11714 Glade River Ln,77377,30.025381,-95.60362,tx,55479172
885,5455 County Road 924,75173,33.08517,-96.44902,tx,53078038
886,318 W Lookout Dr,75080,32.987686,-96.7213,tx,26589553
887,3616 Matilda Dr,75071,33.237263,-96.69045,tx,120743736
888,2109 Downing St,76513,31.07473,-97.45075,tx,58200794
889,2847 Diamond Field,78245,29.40273,-98.688675,tx,26152086
890,3900 Mariner St,75070,33.159966,-96.66898,tx,83734138
891,7700 Rutgers Ave,78757,30.350449,-97.727165,tx,29421289
892,4022 Panama Dr,78411,27.715668,-97.400696,tx,28826144
893,3021 Monroe Ave,79930,31.812454,-106.45883,tx,27483483
894,128 N MEADOW ST,78109,29.525358,-98.31664,tx,26184125
895,355 Quail Run,78052,29.193436,-98.730545,tx,193862406
896,2140 Lawrence Robey Pl,79938,31.767685,-106.230286,tx,124847552
897,1402 Avant Ave,78210,29.394587,-98.44652,tx,65066393
898,4408 Mandalin St,78660,30.478956,-97.54315,tx,331625825
899,1012 June Bug Ln,75115,32.630512,-96.88159,tx,338042104
900,6921 Fruitwood Dr,78413,27.679285,-97.3993,tx,28816234
901,5721 Crestgrove Dr,78415,27.716372,-97.41663,tx,28801654
902,4554 GUADALAJARA DR,78233,29.547663,-98.40251,tx,26337956
903,8215 Coffee St,77033,29.670258,-95.35321,tx,337097387
904,11916 Lime Creek Rd,78641,30.484428,-97.881805,tx,29379527
905,1912 Tiara Dr,78130,29.671623,-98.13351,tx,26555547
906,20602 Bishops Gate Ln,77338,30.021086,-95.29993,tx,70314069
907,215 S Dorothy Dr,75081,32.945683,-96.72323,tx,27160550
908,3200 Homan Ave,76707,31.54651,-97.168594,tx,52088512
909,4625 Quincy Dr,78411,27.710888,-97.39003,tx,28853160
910,12920 Greenway Chase Ct,77072,29.700092,-95.60894,tx,28303931
911,11515 Easy St,78748,30.151669,-97.831894,tx,29515279
912,2705 Fall Dale Cir,75075,33.03813,-96.744965,tx,26596976
913,2608 Sarah Jane Ln,76119,32.69165,-97.291084,tx,28987936
914,5046 County Road 3225,75453,33.001644,-95.88851,tx,78835990
915,18726 Red Squirrel Dr,77357,30.17207,-95.193504,tx,246927292
916,202 CLAYWELL DR,78209,29.495457,-98.462555,tx,26204891
917,901 Draco St,76542,31.068233,-97.74394,tx,2070104303
918,1472 Honey Mesquite St,79928,31.737062,-106.25142,tx,243972215
919,837 Lake Carillon Ln,76092,32.961334,-97.1417,tx,122952395
920,2615 Nightsong Dr,77584,29.5639,-95.43226,tx,72059380
921,615 Ember Ln,76063,32.602703,-97.13157,tx,29315755
922,214 W Williamson Ave,78550,26.2115,-97.69754,tx,50704704
923,892 Stamfordham St,79928,31.707933,-106.22228,tx,251429872
924,2539 Falcon Ridge St,77584,29.549162,-95.36564,tx,26526940
925,2601 Gorman Ave,76707,31.545841,-97.158775,tx,52103563
926,509 Country Pl S,79606,32.325195,-99.826515,tx,53310009
927,5285 Fm 279,75754,32.40913,-95.656395,tx,2060963443
928,907 BRIARCLIFF DR,78213,29.526196,-98.50751,tx,26307896
929,4022 1st St,77554,29.127161,-95.066864,tx,27634911
930,5700 CHIMNEY ROCK,78133,29.880934,-98.17051,tx,84000760
931,1818 Northshore Dr,77459,29.593288,-95.57589,tx,27573885
932,24819 NIGHT ARROW,78258,29.6397,-98.49887,tx,26474984
933,2633 W SUMMIT AVE,78228,29.45932,-98.5483,tx,26254926
934,107 Sage Brush Trl,78840,29.399107,-100.915726,tx,87571303
935,1005 W Trezevant St,75702,32.364838,-95.31171,tx,2060705590
936,4913 Wildcreek Way,76179,32.861603,-97.39632,tx,70570466
937,112 N Acacia Park Cir,77382,30.218723,-95.52939,tx,28764996
938,1618 Ruthven St,77019,29.755295,-95.383736,tx,249894117
939,17306 Broken Back Dr,77532,29.93152,-95.086655,tx,28231628
940,3203 Ohio St,77545,29.539858,-95.47504,tx,27558860
941,2728 Highway 304,78957,29.948423,-97.30224,tx,2144743308
942,8504 Choctaw Trl,76116,32.729645,-97.46551,tx,29148580
943,6307 WELLES FAWN CIR,78240,29.528835,-98.607704,tx,26404236
944,284 Skipper Jack,77316,30.2985,-95.55115,tx,96600351
945,712 Torreon St,78207,29.420416,-98.5206,tx,26210389
946,4317 Virginia Ln,76103,32.740044,-97.25865,tx,97701866
947,3527 Point Clear Dr,77459,29.568672,-95.53331,tx,27594287
948,219 DOLORES AVE,78228,29.444683,-98.58165,tx,26228301
949,207 N Fm 14,75783,32.797215,-95.34233,tx,231975303
950,9710 Salzburg Ct,77338,30.011616,-95.27513,tx,28193181
951,5518 Whisper Glen Dr,76017,32.65673,-97.12624,tx,29266817
952,27 Whispering Valley Dr,78676,30.032072,-98.1445,tx,119631692
953,4005 Marsh Ln,76123,32.623043,-97.39386,tx,29246850
954,11408 Darrin Ln,78617,30.160402,-97.64999,tx,29469952
955,2816 Wycliff Ave,75219,32.811977,-96.816895,tx,26685513
956,10208 Montwood Dr,79925,31.77041,-106.34482,tx,27407048
957,6310 Old Glory Dr,77449,29.86625,-95.7005,tx,28530802
958,602 Brook Meadow Trl,78613,30.496962,-97.84258,tx,120769738
959,0 Ranck Ave,76856,30.650728,-99.02266,tx,2060666634
960,929 Randy Rd,75104,32.572083,-96.96752,tx,26957117
961,4610 Mexicana Rd,75212,32.794403,-96.895645,tx,26835326
962,14991 Stacy Ann Dr,79938,31.805952,-106.15761,tx,27423679
963,5504 Kayway Dr,75402,33.114017,-96.10656,tx,78824672
964,1310 Plantation Dr S,76034,32.86892,-97.14452,tx,29195130
965,515 Frame St,76209,33.218582,-97.125084,tx,27315652
966,1318 Plum Valley Drive,75033,33.19485,-96.88082,tx,2100971670
967,6413 Locke Ave,76116,32.731445,-97.424774,tx,29078751
968,7167 Mount Hawley Rd,75035,33.13729,-96.7561,tx,119834961
969,218 Lamesa Dr,75077,33.081,-97.04677,tx,27260867
970,12319 Pantano Dr,77065,29.941248,-95.60697,tx,28188092
971,25730 Royal Catchfly Rd,77493,29.854952,-95.81988,tx,329225793
972,3214 MESCAL CRK,78223,29.316256,-98.4359,tx,250994925
973,9327 MAPLE SILVER,78254,29.529966,-98.73525,tx,89614624
974,14714 Aegean Way,78154,29.573673,-98.31564,tx,26171753
975,2503 Lynwood Bend,78212,29.4628,-98.49413,tx,2060719652
976,8906 Windy Pike Trl,77433,29.906336,-95.691475,tx,126259700
977,2217 Squires Dr,75028,33.01642,-97.0499,tx,27291973
978,3226 Enclave Ln,77077,29.752125,-95.62204,tx,28547534
979,1419 N Grand Ave,75090,33.65349,-96.596214,tx,193034015
980,1519 Carver St,77803,30.671131,-96.39777,tx,338249355
981,743 E Oltorf St APT 204,78704,30.236437,-97.74792,tx,29462119
982,8370 Longhorn Ridge Dr,78109,29.494394,-98.31692,tx,26190563
983,3416 Oak Creek Cir,75227,32.766445,-96.69449,tx,26784699
984,1011 Briarcreek Dr,76012,32.76956,-97.120575,tx,29190279
985,5234 KING GEORGE DR,78229,29.496887,-98.58837,tx,26328872
986,851 San Jacinto Dr,75052,32.66511,-96.99265,tx,27082664
987,1914 Puerto Rico St,78596,26.128344,-98.00889,tx,52708486
988,223 Schooner Dr,77541,29.076262,-95.13196,tx,26542356
989,1312 W 6th St,76657,31.431389,-97.41489,tx,52063911
990,3613 Glenmont Dr,76133,32.66176,-97.36968,tx,29108978
991,5220 Seawall Blvd #1036D-2,77551,29.272816,-94.817726,tx,2061711954
992,101 Bayou View Dr,77586,29.565226,-95.050224,tx,28039657
993,8330 BRIARGATE DR,78230,29.516283,-98.54356,tx,26313562
994,4539 AVENIDA PRIMA ST,78233,29.543713,-98.40201,tx,26337441
995,1824 Abshire Ln,75228,32.810135,-96.683136,tx,26846480
996,5306 Kingsmill Rd,77546,29.537903,-95.19224,tx,28129912
997,1308 Weatherford Dr,78753,30.405804,-97.64548,tx,29439004
998,10726 E Fm 1462 Rd,77511,29.38735,-95.28755,tx,26521860
999,6826 SAN MIGUEL WAY,78109,29.451216,-98.3534,tx,250995068
1000,10105 TRAPPERS RDG,78109,29.528173,-98.33138,tx,26179944
1001,21755 US-281 S,78264,29.198627,-98.480385,tx,26143757
1002,1001 Nathan Ln,76522,31.108112,-97.8854,tx,220255434
1003,521 Spaulding St,76903,31.46903,-100.42761,tx,75301128
1004,15010 Rolling Oaks Dr,77070,29.992462,-95.5984,tx,28275381
1005,5111 RED HAWK ST,78242,29.34626,-98.60129,tx,26375124
1006,8626 Wyndham Village Dr,77040,29.898956,-95.570206,tx,28530325
1007,3230 Brant Dr,77493,29.822714,-95.82524,tx,28464795
1008,411 Stone Gate Dr,77904,28.889933,-97.00948,tx,78863036
1009,2918 30th Ave N,77590,29.412413,-94.93895,tx,27672217
1010,10814 Sunnydale Ridge Ln,77433,29.937393,-95.6894,tx,251272927
1011,2521 Whitehurst Dr,76133,32.64296,-97.35733,tx,29244828
1012,1811 Field Briar Dr,77450,29.754747,-95.75436,tx,28427990
1013,6502 Pecan Acres Dr,78240,29.506971,-98.61759,tx,26159848
1014,36 Birk St,12405,42.3128,-74.049355,ny,2060675926
1015,3017 Brighton 7 St #1-2,11235,40.579334,-73.96094,ny,2061726388
1016,2508 Antonia Drive,12309,42.812172,-73.881905,ny,32490969
1017,200 Thayer Rd,14450,43.05782,-77.41362,ny,124240263
1018,21 Bishops Ct,14534,43.073967,-77.544,ny,31027190
1019,1581 Slaterville Rd,14850,42.414715,-76.4513,ny,32824539
1020,115 Ralph Avenue,11710,40.685116,-73.534515,ny,31387426
1021,115-30 116th St,11420,40.67573,-73.82235,ny,2078094339
1022,360 Pangburn Road,12306,42.792717,-74.038246,ny,32497384
1023,39 Clinton Avenue,12701,41.64899,-74.684235,ny,32783448
1024,151-40 10th Avenue,11357,40.793022,-73.8114,ny,32027675
1025,3705 Foster Ave,11203,40.639286,-73.94127,ny,30662413
1026,204 Maple St,11225,40.660393,-73.95407,ny,30664684
1027,5332 Oakridge Dr,14075,42.742382,-78.80896,ny,30348548
1028,56 Deerborne Ln,14559,43.185623,-77.801834,ny,30990262
1029,44 Gilbert Place,10701,40.960777,-73.8879,ny,32990300
1030,29 County Route 163,12790,41.501553,-74.55802,ny,63667138
1031,29 Prospect Pl,11217,40.68009,-73.97671,ny,2111758424
1032,5488 State Route 104,13126,43.466354,-76.42783,ny,205945883
1033,55 Middle Grove Road,12833,43.0966,-73.84872,ny,32431873
1034,1720 Manatuck Boulevard,11706,40.769207,-73.27516,ny,59353105
1035,6 Georgia Street,11731,40.874302,-73.33908,ny,59567531
1036,1871 Ellis Hollow Rd,14850,42.42175,-76.37549,ny,71198143
1037,100 W 57th St APT 11J,10019,40.764317,-73.9776,ny,113087202
1038,48 Madison Street,11758,40.675602,-73.42978,ny,31357075
1039,23 William Street,11580,40.686306,-73.72209,ny,31235654
1040,207 W Ferry St,14213,42.914913,-78.89413,ny,30181140
1041,220 Oakwood Avenue,12182,42.762947,-73.66296,ny,32242800
1042,14 Tamarack Lane,12065,42.853436,-73.81555,ny,32418654
1043,148 Schwabie Turnpike,12446,41.848976,-74.317345,ny,337496303
1044,418 Hendrix Street,11207,40.671665,-73.88938,ny,30639167
1045,7 E Home Rd,14026,42.938812,-78.68756,ny,30358014
1046,38 Old Sylvan Lake Rd,12533,41.622555,-73.76655,ny,30101129
1047,97 Moffitt Boulevard,11751,40.73426,-73.22242,ny,59645289
1048,69 Smith Street,11575,40.68872,-73.59012,ny,31325563
1049,4175 Depot Rd,13021,42.99405,-76.4646,ny,30050185
1050,245-58 77th Crescent 2nd fl,11426,40.74247,-73.72405,ny,2060667248
1051,413 Highgate Ave,14215,42.94794,-78.81237,ny,30161285
1052,7886 Martin Rd,14472,42.93802,-77.57527,ny,30813244
1053,86 Bering Ave,14223,42.971024,-78.84992,ny,30397560
1054,314 Clinton St,14527,42.667225,-77.04742,ny,53797318
1055,883 Jefferson Hill Road,12123,42.50045,-73.5588,ny,32252854
1056,150 Ridge Road,10998,41.330864,-74.571686,ny,31823356
1057,387 Roosevelt Ave,12413,42.32441,-74.05468,ny,30491965
1058,22 Flamingo Ct,11954,41.067482,-71.94441,ny,32652732
1059,3346 Bethford Dr,14219,42.794857,-78.80606,ny,30338805
1060,1200 Johnson Rd,14522,43.053223,-77.22369,ny,61980585
1061,61 Atkinson Road,11570,40.683807,-73.62978,ny,31222040
1062,49 Rocklea Dr,14624,43.149456,-77.72444,ny,30921861
1063,755 Narrows Rd N APT 613,10304,40.61076,-74.093575,ny,2062760008
1064,19 Cullens Run,14534,43.07852,-77.49179,ny,31028396
1065,24 Golden Rd,14624,43.114754,-77.75545,ny,30908937
1066,8 Kyer Farm Road,12831,43.146603,-73.738266,ny,32458943
1067,5254 State Highway 41,13841,42.396175,-75.80754,ny,29996560
1068,36 Macon Avenue,11782,40.74236,-73.07945,ny,59647208
1069,20 Sheldon Drive,12118,42.875916,-73.72148,ny,70917850
1070,274 Northwoods Road,11030,40.803688,-73.67333,ny,31076587
1071,24 Grover St,13021,42.92941,-76.563324,ny,30035720
1072,218 Massachusetts Ave,14213,42.910248,-78.89322,ny,30182315
1073,55 Price Street,11772,40.75015,-73.018936,ny,59444898
1074,25 Catherine St,13407,43.007633,-75.015076,ny,30522725
1075,27 Dundee Avenue,12090,42.906715,-73.3661,ny,55730470
1076,10 Tom Sawyer Drive,12831,43.16092,-73.73212,ny,32458160
1077,54 Murray St,14510,42.722107,-77.87849,ny,30816445
1078,490 Mill Rd,12546,41.94713,-73.51201,ny,150850795
1079,76 Steinfeldt Rd,14086,42.900517,-78.65163,ny,30360572
1080,46 Circle Loop #H,10304,40.613384,-74.07918,ny,2128461623
1081,1199 Route 9W,12047,42.793976,-73.73458,ny,61828309
1082,5521 State Route 414,14841,42.50059,-76.87427,ny,32791238
1083,99 Sycamore Street,12208,42.650597,-73.79799,ny,29652395
1084,277 Old Mountain Rd,10963,41.487404,-74.517105,ny,101985960
1085,2611 Avenue I,11210,40.629044,-73.95065,ny,30751024
1086,436 Berryman Dr,14226,42.951847,-78.79181,ny,30266734
1087,9603 Wagner Rd,14080,42.61911,-78.477745,ny,30352106
1088,405 Boos Law Rd,13464,42.657356,-75.6245,ny,29997152
1089,29-43 211 Street,11360,40.773357,-73.77739,ny,32059192
1090,108 Osborne St,13116,43.079227,-76.000374,ny,31747521
1091,489 Miller Road,12061,42.589905,-73.65346,ny,32249993
1092,14112 Hermitage Rd,13648,44.134037,-75.37312,ny,2108156351
1093,26 Wheeler Avenue,10990,41.259296,-74.360115,ny,31861846
1094,151-15 84th Street UNIT 1H,11414,40.667515,-73.85023,ny,2060676235
1095,410 La Rue Ave,13760,42.115093,-76.02397,ny,29763698
1096,186 Wallace Ave,14227,42.90064,-78.778404,ny,30293063
1097,24 Ashton Road,11763,40.853092,-72.95309,ny,59500620
1098,62 Church Street,11754,40.886253,-73.25421,ny,142441519
1099,18 Ormonde Boulevard,11580,40.673637,-73.72408,ny,31234935
1100,1200 Oakleaf Hill,12303,42.724983,-73.92937,ny,29705611
1101,427 Aylesbury Court UNIT A,11961,40.917458,-72.8927,ny,2075142597
1102,86-10 34th Ave APT 514,11372,40.7539,-73.8808,ny,2060674858
1103,2257 Cayuga Dr,14304,43.097588,-78.926704,ny,2061667925
1104,393 W Saugerties Rd,12477,42.111557,-74.04709,ny,32867237
1105,23144 County Route 57,13693,44.018654,-76.26137,ny,98094437
1106,1218 Gill St,13601,43.973343,-75.88785,ny,60560375
1107,2292 Route 32,12477,42.04765,-73.95618,ny,32870168
1108,135 Durston Ave,13203,43.064213,-76.12738,ny,31659282
1109,66 Old Town Crossin,11968,40.882072,-72.38068,ny,32717472
1110,1 Annetta Avenue,11768,40.903633,-73.34523,ny,59551893
1111,2769 Mill Ave,11234,40.60697,-73.91491,ny,30787395
1112,2135 State Route 300,12589,41.582752,-74.12408,ny,31837602
1113,4268 S Park Ave,14219,42.78089,-78.82345,ny,30340905
1114,6635 Snake Rd,14513,43.03781,-77.06564,ny,61973735
1115,16 Rollingwood Drive,10956,41.15795,-74.01368,ny,53395137
1116,19 Church St,12037,42.35714,-73.60222,ny,215416089
1117,333 W Neck Road,11743,40.888527,-73.44547,ny,59551236
1118,107 Fawn Lane E,11720,40.896774,-73.06958,ny,59477297
1119,535 Dealing St,13440,43.220337,-75.4647,ny,31558278
1120,221 Edgewood Ave,14223,42.965904,-78.83457,ny,30400927
1121,50 Fort Pl APT A6A,10301,40.641422,-74.079994,ny,244597458
1122,124 Sunnyside North,12804,43.37668,-73.63749,ny,32927999
1123,1624 Santa Fe Street,12303,42.791798,-73.93551,ny,32473088
1124,237 N Syracuse Avenue,11758,40.70928,-73.463036,ny,31347636
1125,4270 Old Meadow Rd,13041,43.179966,-76.22012,ny,31708701
1126,341 Mountain Road,12834,43.03392,-73.52662,ny,32889132
1127,2 Morris Cir,13413,43.0652,-75.31143,ny,31599673
1128,2887 Shaw Road,12850,43.071026,-73.97117,ny,32428817
1129,273 Arlene St,10314,40.611465,-74.1643,ny,32304595
1130,8 Provost Drive,12553,41.45735,-74.04896,ny,31848822
1131,282 MOREY PARK Road,12123,42.543514,-73.599396,ny,32268242
1132,22 Paddington Road,10583,40.997257,-73.799416,ny,33093333
1133,19 Prospect St,12771,41.375248,-74.68249,ny,31797502
1134,700 Pine Avenue,11795,40.713097,-73.30503,ny,59358890
1135,625 Station Road,12575,41.476166,-74.12659,ny,31847499
1136,52 Shinnecock Avenue,11942,40.85373,-72.56207,ny,32739375
1137,141-21 77th Avenue,11367,40.721615,-73.820755,ny,2060665738
1138,36 Highridge Road,10541,41.371456,-73.72699,ny,31910588
1139,6706 Shawnee Rd,14120,43.102978,-78.83717,ny,31485481
1140,9 Dawson Court,10604,41.061165,-73.73503,ny,72094731
1141,1020 Glenwood Boulevard,12308,42.811344,-73.92048,ny,32463973
1142,116 Sterling Ave,10306,40.56841,-74.11296,ny,32336812
1143,31 Elks Park Rd,12491,42.0022,-74.119514,ny,32843437
1144,8 Margaret Drive,12804,43.315273,-73.69974,ny,32932567
1145,17 Tracy Ave,14020,43.001266,-78.17983,ny,30475427
1146,21 Redfield Street,10580,40.964504,-73.68013,ny,32973309
1147,5 Roy Place,12550,41.526703,-74.031944,ny,31842976
1148,14 Edgewood Drive,12027,42.91249,-73.908,ny,32411399
1149,58 Deborah Loop,10312,40.552723,-74.18529,ny,32359691
1150,16 Whitaker Rd,13069,43.330425,-76.40577,ny,53754481
1151,1471 N Jerusalem Road,11554,40.696903,-73.5695,ny,2060674133
1152,28 Old Route 401,12083,42.465286,-74.03371,ny,29717686
1153,118 County Highway 1,10990,41.258736,-74.39062,ny,2060678565
1154,92 Wright Rd,14467,43.061333,-77.616066,ny,30963682
1155,481 Lexington Ave,14613,43.17903,-77.64266,ny,30860007
1156,21-34 47th Street,11105,40.77106,-73.90066,ny,31943637
1157,89-87 218th Street,11427,40.72585,-73.74373,ny,2060703170
1158,290 N Cottage Street,11580,40.673584,-73.69079,ny,31238391
1159,309 Orange St,14611,43.158142,-77.63483,ny,30865385
1160,154 East Shore Road,11743,40.90039,-73.42269,ny,59549978
1161,595 Franklin Ave APT 3R,11238,40.677975,-73.95502,ny,245066787
1162,26 Hawk Street Street,12010,42.936913,-74.17364,ny,53174922
1163,1647 Electric Ave,14218,42.81429,-78.82858,ny,30224442
1164,10609 Dorchester St,93311,35.34824,-119.12036,ca,19005650
1165,3024 Christmas Tree Ln,93306,35.409863,-118.95901,ca,18998060
1166,24592 Sunshine Dr,92677,33.536594,-117.70368,ca,25569842
1167,37918 Calcedony Ct,93552,34.571335,-118.04121,ca,20257278
1168,3313 Eagle Crest Dr,92881,33.832253,-117.54683,ca,17768483
1169,10326 Oporto Way,93306,35.40755,-118.888504,ca,95524114
1170,2105 S Calle Palo Fierro,92264,33.793865,-116.541534,ca,18031254
1171,27837 Summer Grove Pl,91354,34.446556,-118.55649,ca,65250827
1172,11081 Cardamine Dr,91042,34.270145,-118.29943,ca,20092512
1173,21851 Newland St SPACE 279,92646,33.648396,-117.983345,ca,25647312
1174,2209 North Ave,95838,38.64021,-121.41464,ca,26041080
1175,21707 Crystal Lake Dr,95370,38.016792,-120.26375,ca,16201671
1176,5012 Boyd Dr,95608,38.60661,-121.34658,ca,26094665
1177,19943 Crestview Dr,91351,34.42874,-118.48276,ca,136710190
1178,3624 Eddy Ave,93612,36.78625,-119.69461,ca,18777322
1179,6809 Kittery Ave,95621,38.69242,-121.30731,ca,25983786
1180,17 S 45th St,94804,37.930782,-122.327545,ca,18534342
1181,13886 Hidden Pines Ct,92392,34.50293,-117.407616,ca,89164276
1182,6764 De Anza Ave,92506,33.948826,-117.39355,ca,17848687
1183,2200 Autumn St,93306,35.37787,-118.93115,ca,18931236
1184,16816 Holton St,91744,34.0493,-117.917755,ca,21690081
1185,11886 Begonia Rd,92301,34.510616,-117.40425,ca,17643447
1186,817 Fir Ln,92314,34.246475,-116.80025,ca,17394297
1187,24630 Country Canyon Rd,93561,35.177464,-118.34829,ca,64967158
1188,1180 Ash St UNIT D,93420,35.114864,-120.5996,ca,79574244
1189,1078 Mountain Crest Dr,92407,34.17814,-117.30606,ca,17246613
1190,1539 Seminole Way,95223,38.25607,-120.32139,ca,83254453
1191,1850 W Orangethorpe Ave SPACE 17,92833,33.857944,-117.96108,ca,79814511
1192,37425 5th St E,93550,34.562756,-118.12076,ca,20246272
1193,320 N Park Vista St SPACE 36,92806,33.843636,-117.86456,ca,25650866
1194,2637 Lake View Ter W,90039,34.104607,-118.263275,ca,20752510
1195,1020 E St,95501,40.797115,-124.166245,ca,2067229198
1196,461 Tracy Ave,95401,38.434628,-122.76964,ca,15780869
1197,3075 Myrtle Ave,92104,32.741825,-117.12759,ca,16974706
1198,16848 E Bygrove St,91722,34.10531,-117.91714,ca,21540462
1199,6150 E Avenue T SPACE 41,93552,34.54136,-118.0192,ca,136691579
1200,25747 Long Barn Rd,95335,38.092224,-120.13565,ca,2060674705
1201,16600 Orange Ave SPACE 147,90723,33.883675,-118.175735,ca,136698201
1202,298 E Everglade Ave,93720,36.86544,-119.77816,ca,18687692
1203,12553 Meacham Rd,93312,35.39034,-119.14165,ca,95059674
1204,658 Crested Butte St,91911,32.611202,-117.08561,ca,17151336
1205,12402 Quartz Hill Rd,96003,40.63358,-122.41426,ca,15239265
1206,10799 Sherman Grove Ave #6,91040,34.264996,-118.32143,ca,2060682377
1207,16215 Colina St,92395,34.531742,-117.310356,ca,17478884
1208,1319 S Poplar St,92704,33.73,-117.88693,ca,25207169
1209,2011 Rancho Paradiso,95223,38.22515,-120.36907,ca,63231324
1210,13943 Eastridge Dr,90602,33.9723,-118.02342,ca,21427357
1211,28 Pine Via,92801,33.86458,-117.91429,ca,157966046
1212,4802 Siesta Pl,92057,33.247166,-117.30502,ca,16587252
1213,66385 4th St,92240,33.96481,-116.50339,ca,18098928
1214,30802 Coast Hwy SPACE F-3,92651,33.51762,-117.75773,ca,83269592
1215,622 E 154th St,90220,33.891945,-118.26438,ca,20993122
1216,40830 Cornerstone Ct,93614,37.196697,-119.8023,ca,19140592
1217,75 Round Table Dr,92507,33.98597,-117.34476,ca,2108602911
1218,73355 Sun Valley Dr,92277,34.14375,-116.0617,ca,17504594
1219,4112 Beach Bluff Rd,92008,33.151455,-117.32276,ca,16649404
1220,2027 Mission Ave,92116,32.75885,-117.143074,ca,16954818
1221,27985 Manzanita Trl,95713,39.14592,-120.90579,ca,17686544
1222,1428 Stoney Creek Rd,93446,35.604877,-120.65581,ca,51601102
1223,9350 Bolsa Ave SPACE 4,92683,33.74302,-117.96597,ca,89153474
1224,10925 Scott Ave,90604,33.932823,-118.0011,ca,21463169
1225,13151 Pavillion Ct,92553,33.929634,-117.25342,ca,17893243
1226,29622 Cool Meadow Dr,92584,33.691216,-117.21993,ca,54956160
1227,2982 Sagewind Dr,92833,33.90148,-117.98219,ca,136962077
1228,21017 Standing Rock Ave,92307,34.521652,-117.205444,ca,241482757
1229,15582 Tonekai Rd,92307,34.534637,-117.21846,ca,2062282463
1230,1241 Farroll Ave SPC 29,93420,35.109444,-120.60349,ca,2120035891
1231,14520 Rodeo Dr,92395,34.514767,-117.30429,ca,89166302
1232,2 Hidden Springs Ct,92276,33.830605,-116.35028,ca,2102753140
1233,4311 Ebersole Dr,92154,32.57797,-117.04191,ca,17168392
1234,6245 Jackson Valley Rd,95640,38.297718,-120.905556,ca,18200491
1235,1235 Darby St,91977,32.71743,-117.01909,ca,17114773
1236,1124 Championship Rd,92057,33.277657,-117.28665,ca,69022737
1237,23528 Calistoga Pl,92065,32.99827,-116.81897,ca,16757247
1238,29370 Fawn Way,93561,35.16375,-118.651375,ca,18981399
1239,3804 Glenalbyn Dr,90065,34.09365,-118.21546,ca,20755584
1240,58098 Aracena,92253,33.626736,-116.24419,ca,79836074
1241,25831 Via Lomas UNIT 210,92653,33.587536,-117.70509,ca,25763146
1242,40701 Rancho Vista Blvd SPACE 202,93551,34.619953,-118.22218,ca,136709331
1243,52090 Avenida Mendoza,92253,33.66999,-116.30597,ca,95905589
1244,9713 Pocohontas Ln,93311,35.28951,-119.11218,ca,300315805
1245,47265 Rancho View Dr,92592,33.441074,-117.095505,ca,18166872
1246,1980 Newell Dr,95540,40.598557,-124.14495,ca,18826626
1247,662 Decanter Cir,95492,38.53864,-122.81849,ca,54388786
1248,10 Joaquin Rd,94028,37.34288,-122.203384,ca,15602793
1249,101 Opus One Ct,95762,38.7702,-121.04762,ca,79794028
1250,6600 Lucas Valley Rd,94946,38.05546,-122.67164,ca,19276250
1251,17400 Valley Blvd SPACE 32,92335,34.07137,-117.42637,ca,145565444
1252,8714 Silver Moon Dr,92040,32.83159,-116.908264,ca,125982397
1253,70075 Vineyard Canyon Rd,93451,35.918194,-120.53329,ca,249338561
1254,2522 Sunset Ridge Rd,95514,40.285713,-123.666885,ca,64888779
1255,2532 E 14th St,90804,33.78419,-118.16146,ca,21227616
1256,4171 9th St,92501,33.98364,-117.38052,ca,17841161
1257,2360 Dusk Dr,92139,32.679485,-117.04993,ca,17131860
1258,1698 Via Hacienda Ct,92069,33.16112,-117.19822,ca,98328968
1259,9460 61st St,92509,33.977795,-117.49115,ca,17816797
1260,2160 Chestnut St,94551,37.685413,-121.771065,ca,24935475
1261,10718 Flaxton St,90230,33.999626,-118.38807,ca,20429770
1262,24055 Paseo Del Lago UNIT 357,92637,33.613255,-117.74404,ca,25691906
1263,3818 Kimberly Rd,95682,38.662632,-120.99977,ca,18602717
1264,801 N Muriel Ave,90221,33.90128,-118.202675,ca,21016561
1265,1875 Whitehurst Dr,91755,34.04347,-118.11909,ca,20668011
1266,520 Laguna Crk,95033,37.097992,-121.89366,ca,16162301
1267,2870 Molly Ln,95667,38.733902,-120.80938,ca,18566359
1268,1323 Ghia Way,95337,37.79419,-121.23707,ca,15375002
1269,1059 E Marbury St,91790,34.078552,-117.92384,ca,21558710
1270,591 Blossom Way S,93636,36.915894,-119.801994,ca,307022769
1271,4419 Woodview St,95608,38.64535,-121.3034,ca,26053123
1272,1706 Wade Dr,93446,35.610744,-120.67178,ca,15397599
1273,2818 Dusk Dr,92139,32.67217,-117.048256,ca,17131561
1274,2865 Treadwell Blvd,92274,33.336823,-115.98829,ca,113357975
1275,25360 Cedar Glen Dr,92549,33.75253,-116.72476,ca,18046583
1276,763 S Crescent Ave,95240,38.12422,-121.283066,ca,15262408
1277,4183 Lugo Ave,91709,33.972523,-117.713196,ca,17556703
1278,2536 Devonshire Ln,91001,34.1881,-118.13432,ca,20915044
1279,5722 Hillsdale Blvd,95842,38.67151,-121.35736,ca,26000486
1280,667 4th St,95565,40.47927,-124.10193,ca,2060683468
1281,28949 Miller Rd,92082,33.238308,-117.03221,ca,16643614
1282,4922 1/2 McConnell Ave,90066,33.98343,-118.4233,ca,20441402
1283,3249 Oriole Way,95843,38.709286,-121.38779,ca,25963390
1284,335 Wake Forest Rd,92626,33.65818,-117.91338,ca,25251720
1285,1436 Mayo St,93555,35.597496,-117.694756,ca,18914024
1286,21834 S Vermont Ave UNIT 6,90502,33.82976,-118.28963,ca,21263414
1287,590 Wildwood Way,96130,40.43104,-120.66341,ca,19106619
1288,11563 Seminole Cir,91326,34.282467,-118.55595,ca,20200289
1289,34502 Calle Portola,92624,33.46181,-117.66054,ca,25216009
1290,31511 Corte Pacheco,92592,33.50586,-117.10962,ca,18186547
1291,4901 Green River Rd SPACE 102,92880,33.8779,-117.662,ca,2061231499
1292,22617 Federalist Rd,91302,34.145664,-118.62043,ca,19900959
1293,8705 Fox Creek Ct,93312,35.363712,-119.09905,ca,19049509
1294,11002 Oakwood Ave,92345,34.450424,-117.34307,ca,17441134
1295,11231 View Ln,92883,33.771843,-117.46405,ca,17884915
1296,1040 Berkshire Dr,95762,38.63986,-121.07749,ca,18615881
1297,2950 Lawn Ct,95348,37.331055,-120.539894,ca,19178622
1298,20901 Michaels Dr,95070,37.262283,-122.04035,ca,19742294
1299,561 Salmon Creek Rd,94922,38.348244,-122.978836,ca,250059294
1300,2275 W 25th St SPACE 238,90732,33.723232,-118.3298,ca,136701465
1301,37947 Rosemarie St,93550,34.57202,-118.097694,ca,20247573
1302,40976 Cardinal Flower Dr,92562,33.580914,-117.219955,ca,18181634
1303,26262 Amapola Ln,92691,33.581696,-117.66078,ca,25602988
1304,2691 Preakness Way,92860,33.920254,-117.58799,ca,52468352
1305,2432 Wightman St,92104,32.747643,-117.13825,ca,16973012
1306,12815 Rexton St,90650,33.90473,-118.05914,ca,21390263
1307,12700 Elliott Ave SPACE 305,91732,34.04856,-118.01336,ca,2072308834
1308,842 Tartan Ct,95648,38.895294,-121.32796,ca,51065505
1309,129 E Elm Street,93230,36.33369,-119.6446,ca,19062679
1310,728-30 Colorado Ave,91910,32.62147,-117.09183,ca,17106715
1311,2204 Seven Oaks Ct,95762,38.702755,-121.08195,ca,18594839
1312,28720 Williams Dr,92587,33.70366,-117.240746,ca,17927832
1313,27958 Milliken Dr,91350,34.45924,-118.53082,ca,111916342
1314,1 Millie Ln,92252,34.214314,-116.3593,ca,2061094208
1315,6113 Castleford St,93313,35.29892,-119.0424,ca,18993292
1316,17194 Karen Rd,93636,36.998688,-119.883896,ca,19139477
1317,12555 Euclid St APT 115,92840,33.77976,-117.94162,ca,25662752
1318,4120 Bechelli Ln,96002,40.5473,-122.362854,ca,15219837
1319,1554 Bubbling Well Dr,92154,32.567986,-117.09817,ca,17173210
1320,6500 Jenny Lind Rd,95252,38.12023,-120.880264,ca,83303308
1321,11123 E Live Oak Rd,95240,38.08093,-121.179375,ca,129729342
1322,24 Berry Dr,07470,40.937935,-74.23764,nj,39790093
1323,11 Mud Pond Rd,07871,41.09436,-74.6063,nj,39949671
1324,83 Chestnut Ridge Rd,07458,41.02023,-74.08705,nj,52911235
1325,99 Lisa Dr,07928,40.699825,-74.44323,nj,39400821
1326,702 Rifle Camp Rd,07424,40.882088,-74.19472,nj,39811884
1327,429 Lake Barnegat Dr N,08731,39.851818,-74.19246,nj,39629597
1328,702 Plymouth Drive UNIT D,08701,40.050636,-74.18524,nj,39643100
1329,18 Cedar Ln,07068,40.831104,-74.31396,nj,38729193
1330,351 Central Ave,07470,40.938927,-74.1971,nj,39790861
1331,7 Sassafras Dr,08081,39.71491,-74.9637,nj,64464983
1332,147 Voorhis Ave,07661,40.926224,-74.03815,nj,38016547
1333,25 Covered Bridge Ct,08234,39.37721,-74.621704,nj,150413589
1334,37 Seaman Rd,07052,40.812813,-74.248886,nj,38748900
1335,3 Eileen Ct,07885,40.893875,-74.57032,nj,39510149
1336,133 Tunes Brook Drive,08723,40.034485,-74.14204,nj,39550937
1337,29 Arapaho Pl #29,08205,39.48842,-74.51038,nj,2060673978
1338,456 Broadway,07055,40.851906,-74.14204,nj,39750793
1339,6 Bass Place,07731,40.159683,-74.23641,nj,39270786
1340,550 E Church St,08012,39.802277,-75.05718,nj,38256808
1341,32 Jarrett Ct,08053,39.85565,-74.88858,nj,38101753
1342,335 Walnut St,07110,40.820778,-74.14334,nj,38724253
1343,59 Chingarora Avenue,07735,40.431725,-74.20899,nj,39280699
1344,339 William St,07076,40.661552,-74.38712,nj,40053577
1345,7 Mesa Court,07863,40.82395,-74.97587,nj,40112684
1346,135 Jacksonville Rd,07035,40.952385,-74.32548,nj,39434280
1347,922 Myrtle Ave,08204,39.00679,-74.881195,nj,38345729
1348,1308 Cedarbrook Ave,08332,39.389786,-75.065475,nj,38410597
1349,75 Union St APT 5A,07601,40.881035,-74.04869,nj,37925195
1350,6120 Johnson Pl,07093,40.787746,-74.00794,nj,162154777
1351,14 Fern St,07677,41.01999,-74.06591,nj,38058405
1352,22 Beech Dr,07430,41.038185,-74.16105,nj,37959778
1353,22 Ward Pl,07042,40.792007,-74.22107,nj,38687366
1354,201 Springfield Ave,07070,40.834354,-74.115974,nj,52910230
1355,4 Mary Ct,07430,41.073116,-74.18134,nj,37952686
1356,1459 77th St,07047,40.803997,-74.01589,nj,38932547
1357,202 Eagon Ave,08234,39.42681,-74.555565,nj,37789305
1358,48 White Oak Ct,07054,40.862995,-74.36206,nj,39478757
1359,1094C Argyll Cir UNIT C,08701,40.028057,-74.16475,nj,2060679490
1360,140 Spruce St,08302,39.419487,-75.22703,nj,38397822
1361,843 S 15Th St,07108,40.72519,-74.21164,nj,38706047
1362,73 Rutgers Rd,08070,39.637466,-75.5342,nj,39822891
1363,301 E Lavender Rd #2,08260,38.977936,-74.82692,nj,38391400
1364,6 Ohio Ct,07747,40.430733,-74.26244,nj,39120175
1365,150 Clark Ave,08057,39.966854,-74.96056,nj,38128230
1366,211 Fresh Ponds Rd,08816,40.415623,-74.464806,nj,39053525
1367,400 Montauk Dr,07090,40.63625,-74.32919,nj,40092428
1368,1204 Lenape Trail,08736,40.116856,-74.06591,nj,39386563
1369,649 Powell Rd,08060,39.993362,-74.75814,nj,38090279
1370,1085 Julia St,07666,40.893238,-74.00827,nj,38039448
1371,6 Kean Ct,08837,40.541706,-74.332726,nj,88939322
1372,720 Grand St,07304,40.715847,-74.06773,nj,88856440
1373,158 Montgomery St,07003,40.79248,-74.18711,nj,38628956
1374,1300 Kenyon Ave,07060,40.599823,-74.4139,nj,2060712320
1375,8 Glenn Oaks Ct,08857,40.382515,-74.30076,nj,39125965
1376,5 Victorian Way,07722,40.28072,-74.20574,nj,39230519
1377,43 Graceview Dr,07405,40.97678,-74.33876,nj,52402181
1378,7701 Park Ave,08109,39.959846,-75.0337,nj,2075776444
1379,839 S 15Th St,07108,40.72532,-74.21159,nj,38706045
1380,128 Berlin Cross Keys Rd,08094,39.718067,-75.02375,nj,38790519
1381,20 Wildcat Ave,08053,39.881706,-74.92926,nj,38098313
1382,46 Bleecker St,07307,40.750694,-74.04879,nj,38896704
1383,378 Carhart Ct,08816,40.45701,-74.40272,nj,39047738
1384,1232 Kohler Ave,08096,39.82992,-75.11698,nj,38760012
1385,247 Wedgewood Dr,07652,40.93761,-74.06637,nj,37990766
1386,56 Ward Ave,07014,40.83242,-74.1395,nj,39733728
1387,32 Mountain View Ave,07853,40.777634,-74.76797,nj,39508347
1388,29 John St,07480,41.14305,-74.35414,nj,39804620
1389,605 Succasunna Rd,07850,40.917072,-74.64871,nj,39501613
1390,140 Cork Hill Rd,07416,41.1038,-74.59186,nj,64852794
1391,2520 Fostertown Rd,08036,39.969105,-74.85453,nj,38109742
1392,66 Dakota Trl,08015,39.911396,-74.58146,nj,38155108
1393,908 Papen Rd,08807,40.62,-74.60871,nj,39864332
1394,728 Sterling Rd,08096,39.84892,-75.16506,nj,38820520
1395,1 Avenue B,07758,40.43163,-74.10094,nj,39318612
1396,61 Knox Ln,07726,40.302494,-74.291626,nj,39298700
1397,226 Greenwich Ave,08066,39.847286,-75.24219,nj,38799199
1398,17 Dale Dr,07960,40.77666,-74.50944,nj,39453818
1399,201 Nicholson Rd,08059,39.894234,-75.09598,nj,38266974
1400,715 Broad St,07003,40.816933,-74.19303,nj,38632618
1401,106 W Camden Ave,08057,39.957287,-74.98037,nj,2128545859
1402,38 Twin Oaks Dr,08302,39.428688,-75.21264,nj,87967523
1403,670 Barron Ave,07095,40.564095,-74.27901,nj,39207294
1404,57 Walnut Street,07727,40.19755,-74.17273,nj,39237728
1405,11 Whispering Way,07059,40.61921,-74.5042,nj,39917766
1406,852 Paterson Ave,07073,40.84988,-74.11444,nj,37880070
1407,813 Aston Martin Dr,08021,39.81931,-75.02254,nj,38281674
1408,21 Winthrop Place,07730,40.42753,-74.17173,nj,39251499
1409,63 Puerto Vallarta Street,08757,39.9742,-74.26805,nj,39525498
1410,478 White Birch Dr,07675,41.0139,-74.00515,nj,38019107
1411,1 Lakeview Ter,08088,39.890545,-74.70951,nj,38164396
1412,42 Weston St,07110,40.814266,-74.1491,nj,38722942
1413,743 Hilltop Dr,08620,40.174095,-74.69867,nj,38069769
1414,215 W Clifton Ave,08012,39.79928,-75.0713,nj,2060682246
1415,1071 Middle Ave,08089,39.73371,-74.84689,nj,38318583
1416,12 Lenape Trl,07438,41.007637,-74.52099,nj,39428667
1417,20 Norwich Drive,08757,39.963184,-74.23675,nj,39532111
1418,280 Prospect Ave #50,07601,40.89188,-74.05294,nj,2061469414
1419,25 S Woodland Drive,07704,40.363956,-74.023506,nj,39237101
1420,105 New Market Rd,08812,40.5904,-74.4616,nj,39046676
1421,137 New Jersey Rd,08030,39.8817,-75.125336,nj,38196155
1422,56 Summit Cir,07643,40.856464,-74.040726,nj,37942882
1423,26 Charman Ave,08045,39.862617,-75.032524,nj,38279184
1424,8 Lincoln Ave,07052,40.80011,-74.266525,nj,38753607
1425,425 Hancock Pl,07022,40.812332,-74.00286,nj,37903382
1426,1 Bedford Dr,08234,39.410145,-74.60687,nj,68296165
1427,41 Riverview Ave,07070,40.824852,-74.11516,nj,38023241
1428,34 Walnut St,08817,40.52002,-74.40257,nj,39079326
1429,1069 Canal Rd,08540,40.438576,-74.61185,nj,39867648
1430,21 Sterling St,07407,40.919243,-74.12825,nj,37875771
1431,5 Corey Ln,07945,40.784348,-74.56383,nj,39443734
1432,801 Wick Blvd,08096,39.847153,-75.1421,nj,38828885
1433,3 Wedel Ave,08054,39.97461,-74.89387,nj,38136791
1434,222 Branch Rd #222A,08831,40.314533,-74.462234,nj,2060693330
1435,1840 Frontage Rd #704-4-704,08034,39.91623,-74.981865,nj,2060673824
1436,304 Durand Road,07753,40.200745,-74.049934,nj,39347072
1437,5207 State Route 33,07727,40.22239,-74.13563,nj,2097713640
1438,5 Ute Pl,07866,40.917995,-74.525856,nj,39495690
1439,1433 Georgian Dr,08057,39.980778,-74.97198,nj,38129308
1440,2 Old Lakeside Rd South,07421,41.153595,-74.350845,nj,2062547476
1441,128 Barkley Ave,07011,40.877037,-74.14337,nj,39721110
1442,15 Park Ave,08318,39.590282,-75.16738,nj,39816210
1443,64 Laurel Ave,07111,40.727577,-74.23928,nj,38657176
1444,51 Isabella Drive,08759,40.037052,-74.27257,nj,39671326
1445,71 S 2Nd St,07206,40.646896,-74.1955,nj,79891010
1446,12 Birchwood Ct,08550,40.29342,-74.6302,nj,39036211
1447,6121 Mill Rd,08234,39.387455,-74.633415,nj,37794477
1448,5 Grauert Pl,07086,40.77515,-74.01911,nj,38946409
1449,24 Deborah Dr,08854,40.52858,-74.47673,nj,39151215
1450,116 Hawthorne Ave,07028,40.79115,-74.21256,nj,38654653
1451,165 Main Rd,08360,39.52268,-74.98982,nj,38773146
1452,322 Lafayette Rd,08069,39.712738,-75.46629,nj,39814407
1453,737 Spar Avenue,08722,39.930054,-74.19786,nj,39521174
1454,11 Hunter Rdg,07677,41.015224,-74.07347,nj,38058316
1455,33 Hamilton Ave,07032,40.782215,-74.144714,nj,38921554
1456,934 Clinton St,07036,40.62692,-74.24136,nj,40020475
1457,56 Gordonhurst Ave,07043,40.83111,-74.19608,nj,38688857
1458,36 Country Club Dr,08831,40.3244,-74.39173,nj,64920677
1459,76 Julia Ave,08610,40.19857,-74.73958,nj,38982392
1460,42 Cinder Rd UNIT 1,08820,40.572308,-74.34646,nj,178430480
1461,3 Meadow Lark Lane,08759,40.341377,-74.423515,nj,2060965914
1462,215 W Grand St,07208,40.665672,-74.22451,nj,2061450315
1463,171 Bethel Ln,45177,39.37958,-83.80512,oh,118629748
1464,7058 Fairacres Rd,44039,41.38748,-81.99579,oh,34595243
1465,2507 Cinnamon Ridge Ct,45342,39.608925,-84.22183,oh,34996141
1466,6940 Rutherford Ct,45239,39.20958,-84.57715,oh,34295391
1467,950 Aurora Hudson Rd,44202,41.291412,-81.362785,oh,35143320
1468,3206 Bexley Dr,45042,39.527622,-84.371025,oh,33225200
1469,10093 Shelburn Dr,45140,39.257442,-84.28193,oh,34422799
1470,11924 Abbey Rd,44133,41.32522,-81.7777,oh,33586127
1471,7391 Woodlow Dr,43068,39.976685,-82.80448,oh,33987956
1472,1966 Catalina Ave,45237,39.171272,-84.45981,oh,34236348
1473,7511 Canterbury Rd,45662,38.741425,-82.86024,oh,78449974
1474,3203 Southway St SW,44646,40.77706,-81.474045,oh,35277144
1475,422 Elizabeth St,45203,39.106483,-84.52189,oh,34236755
1476,27074 Rose Rd,44145,41.440308,-81.9211,oh,33459678
1477,6399 Gorsuch Rd,45005,39.5357,-84.27507,oh,35618795
1478,304 Mayberry St,43609,41.633995,-83.59592,oh,34640697
1479,911 Paradrome St,45202,39.110046,-84.49869,oh,34221270
1480,506 Michigan Ave,45373,40.044567,-84.195625,oh,34922670
1481,724 Maple Ave,44512,41.008083,-80.63962,oh,34801206
1482,1291 Noe Bixby Rd,43232,39.951157,-82.85282,oh,33918661
1483,4085 Red Coat Ln,43230,40.0587,-82.88235,oh,34112830
1484,2345 Westview Dr,44410,41.27741,-80.73569,oh,35526267
1485,6049 Werk Rd,45248,39.142937,-84.64905,oh,34338041
1486,500 Indian Ridge Trl,43460,41.601055,-83.56106,oh,35685461
1487,7621 Winterberry Dr,44512,41.017014,-80.640594,oh,34801093
1488,8151 Montello Rd,44131,41.355904,-81.62503,oh,33611508
1489,5290 Solomon Ave,43125,39.868946,-82.86272,oh,34042249
1490,1100 S State St,45030,39.253944,-84.819725,oh,34352419
1491,589 Fairwood Ave,43205,39.955147,-82.95348,oh,33862994
1492,1961 Lakeview Dr,44667,40.853798,-81.790634,oh,35713085
1493,36350 Stevens Blvd,44094,41.6474,-81.42931,oh,34505635
1494,11115 Romsey Ave NW,44685,40.9484,-81.40098,oh,35246549
1495,3396 Smith Kramer St NE,44632,40.939957,-81.31425,oh,35244313
1496,16074 W River Rd,44028,41.29942,-81.92626,oh,34611154
1497,1260 Hathaway Ave,44107,41.489323,-81.78881,oh,33494931
1498,199 Short St,45169,39.488842,-83.6485,oh,227512188
1499,3989 Tomahawk Dr,45341,39.87361,-84.037865,oh,33288958
1500,1755 Cedar Hill Rd,43130,39.714783,-82.62788,oh,33820692
1501,5660 Goodman Dr,44133,41.319878,-81.72971,oh,33589207
1502,1228 8th Ave,43130,39.723053,-82.62001,oh,33812520
1503,7746 Sharts Rd,45066,39.5551,-84.26968,oh,35608339
1504,1130 Eaton Fort Nesbit Rd,45347,39.950146,-84.77959,oh,107213262
1505,2959 McCormick Rd,44224,41.155876,-81.451805,oh,35401467
1506,130 Tiller Dr,43065,40.144794,-83.07986,oh,33737381
1507,1786 Fairmount Ave,45214,39.13039,-84.55378,oh,34251341
1508,2581 Irving Pl,45212,39.171597,-84.4437,oh,34426890
1509,1052 Glendalough Ave,44044,41.291706,-82.06192,oh,67330567
1510,1683 Hilbish Ave,44312,41.01689,-81.453995,oh,35387009
1511,4140 Everett Rd,44286,41.2013,-81.64326,oh,81723233
1512,114 Stahl St,43406,41.323643,-83.4307,oh,35669041
1513,4345 Danberry Dr,44070,41.425823,-81.88435,oh,33473604
1514,5228 Chickasaw Rd,44286,41.272087,-81.67265,oh,35380965
1515,6496 S Reeves St,44240,41.167057,-81.32432,oh,96410724
1516,955 Amity Rd,43119,39.96837,-83.211754,oh,34026268
1517,22302 Center Ridge Rd #12,44116,41.45837,-81.86628,oh,134244766
1518,3621 Chestnut Rd,44131,41.38497,-81.66631,oh,33606350
1519,7817 Stone Rd,44256,41.156418,-81.97061,oh,34915526
1520,6225 Bona Vista Pl,45213,39.18722,-84.43234,oh,34232911
1521,7852 Farmers Rd,45159,39.30929,-83.76695,oh,118631051
1522,4080 S State Route 605,43021,40.160492,-82.80916,oh,33719608
1523,8398 Lakeside Dr,45840,41.045094,-83.58272,oh,91958709
1524,939 Fairfax Ave,44906,40.78507,-82.54997,oh,91969440
1525,311 W Lima St,45840,41.032696,-83.65431,oh,78978509
1526,381 Clinton Ave,44301,41.034325,-81.513245,oh,35458732
1527,788 Edwards Dr,44017,41.346676,-81.85432,oh,33522302
1528,3883 Mad River Rd,43123,39.90709,-83.09982,oh,124011978
1529,137 S 1st St,45113,39.39951,-83.982254,oh,227509827
1530,86 Henderson Ln,43103,39.717796,-82.99777,oh,128613620
1531,115 Aliceland Dr,43953,40.37186,-80.70453,oh,92238630
1532,16475 Commons Oval,44136,41.34189,-81.81452,oh,33535994
1533,4545 E Pleasant Valley Rd,44131,41.36208,-81.66252,oh,33608091
1534,422 E Main St,43543,41.586197,-84.60254,oh,84228443
1535,37022 Fairfield Ln,44039,41.35309,-82.03758,oh,67330877
1536,4407 W 139th St,44135,41.434387,-81.78869,oh,33370238
1537,327 E Jeffrey Pl,43214,40.060936,-83.01059,oh,33879521
1538,8486 Doe Run Pl,45424,39.875294,-84.11185,oh,35064814
1539,5844 Atwood Pl,44094,41.608723,-81.442825,oh,34501999
1540,627-N627 County Rd S #17C,43545,41.364513,-84.19945,oh,2060675169
1541,610 University Ave,44035,41.352787,-82.08493,oh,34582671
1542,304 Deep Woods Ct,45005,39.581566,-84.307175,oh,124189017
1543,9535 Daniels Rd,44273,41.012928,-81.91011,oh,34914163
1544,1715 Coes Post Run,44145,41.46283,-81.93486,oh,33454918
1545,819 E Temple St,43160,39.543053,-83.43327,oh,2132469387
1546,24 Lincoln Ave,44017,41.37975,-81.854034,oh,33519254
1547,451 W Cook Rd,44907,40.73234,-82.53303,oh,86618909
1548,1649 Hilltree Dr,45255,39.08075,-84.31995,oh,34272680
1549,4261 Diller Rd,45807,40.779858,-84.18195,oh,33113254
1550,3200 Bowmen Ln,44134,41.365692,-81.70573,oh,33569081
1551,2045 Bridger Rd,44312,41.007618,-81.44958,oh,118520312
1552,4202 Bayard Rd,44121,41.509533,-81.52871,oh,33671031
1553,9306 Bridgecreek Dr,45231,39.237457,-84.51772,oh,82322732
1554,1500 Stanford Dr,44212,41.234554,-81.83236,oh,34878964
1555,155 Stone Ridge Way,44017,41.376328,-81.88062,oh,90188759
1556,3787 Canterbury Rd,44145,41.435413,-81.91264,oh,33460121
1557,1547 Barlow Rd,44236,41.22155,-81.4363,oh,35356515
1558,601 Perham Dr,44017,41.358734,-81.8836,oh,33523663
1559,10645 Stapleton Dr,44136,41.333416,-81.80962,oh,33536282
1560,6381 Karl Rd,43229,40.09758,-82.97625,oh,33914511
1561,5730 Belmar Dr,45424,39.83629,-84.11486,oh,35069798
1562,3312 Orchard Trail Dr,43606,41.68056,-83.63391,oh,34704067
1563,2225 Edgevale Rd,43221,40.02836,-83.07486,oh,33996234
1564,693 Platoon Dr,43119,39.9618,-83.23272,oh,34060038
1565,2172 Fenwick Rd,44118,41.50065,-81.54162,oh,33681453
1566,3651 Strathavon Rd,44120,41.46031,-81.561005,oh,33689479
1567,316 Stratford Rd,44333,41.13144,-81.5988,oh,35332449
1568,7022 Beresford Ave,44130,41.372993,-81.779175,oh,33580520
1569,417 Crestwood Ave,44302,41.08677,-81.53273,oh,35445433
1570,3637 Strandhill Rd,44122,41.460644,-81.55265,oh,33691431
1571,829 Bittersweet Dr NE,44646,40.80485,-81.49382,oh,35221851
1572,715 S Fred Shuttlesworth Cir,45229,39.151474,-84.48991,oh,34227908
1573,6658 Edison St NE,44632,40.952263,-81.27014,oh,58728587
1574,600 S Hawkins Ave,44320,41.093063,-81.56981,oh,35468509
1575,1336 Courtland Ave,43201,39.98974,-83.00427,oh,33847252
1576,2262 Main St,44653,40.43903,-81.37445,oh,92376319
1577,102 Mann Ave,45324,39.824272,-84.019226,oh,34158194
1578,5557 Beechwood Ave,44137,41.410645,-81.54984,oh,33704471
1579,1924 Green Valley Dr,43614,41.60434,-83.64646,oh,34689693
1580,1163 20th Ave,43211,40.00308,-82.97693,oh,33869624
1581,1435 S Crissey Rd,43528,41.614727,-83.75914,oh,34734350
1582,2231 Victoria Park Dr,43235,40.06568,-83.07752,oh,34109703
1583,9340 Stoneburner Rd NW,43731,39.741867,-82.004364,oh,2060719818
1584,666 W Delaware Ave,43610,41.67122,-83.56014,oh,34621671
1585,3114 Tubman Ave,45417,39.73479,-84.24511,oh,35109997
1586,386 Cartwright Dr,44333,41.125244,-81.63331,oh,35331493
1587,1835 Stetson Rd,43232,39.940155,-82.85052,oh,33912630
1588,4061 Forest Ridge Blvd,45424,39.812943,-84.11448,oh,34984756
1589,3126 E 135th St #3,44120,41.47372,-81.588844,oh,82180489
1590,4297 Cox Dr #B,44224,41.192867,-81.43224,oh,35395228
1591,1256 Edwards Rd,45208,39.13498,-84.443405,oh,34213966
1592,252 Huntsford Dr,44056,41.329494,-81.52577,oh,35367013
1593,1798 Stewart Rd,45801,40.764076,-84.069916,oh,33125767
1594,1409 Boston Mills Rd,44264,41.264385,-81.554474,oh,35330796
1595,145 5th St,45504,39.94418,-83.80563,oh,33325341
1596,1303 Giesse Dr,44124,41.525097,-81.45074,oh,58559724
1597,9843 Williams Dr,45005,39.585426,-84.259514,oh,35608409
1598,96 Maple Hill Dr,44022,41.437283,-81.308205,oh,34154593
1599,8711 Monsanto Dr,45231,39.225212,-84.529274,oh,34364502
1600,1921 State Route 380,45385,39.62832,-83.947914,oh,333335823
1601,1570 Alton Darby Creek Rd,43228,39.9829,-83.178215,oh,34048484
1602,3625 Baumberger Rd,44224,41.16768,-81.454575,oh,35400277
1603,2790 Azelda St,43211,40.022133,-82.98695,oh,33870386
1604,320 State Route 314 S,44903,40.750603,-82.66223,oh,91969888
1605,3983 Irwin Ct,43123,39.882202,-83.07974,oh,33969077
1606,999 Cedar Ridge Dr APT 5,45245,39.042732,-84.26088,oh,51277973
1607,3010 County Road 130,45850,40.637356,-83.82237,oh,97142809
1608,6631 Abbotswood Dr,43615,41.63734,-83.69998,oh,34736697
1609,2047 Washington Dr,44143,41.572094,-81.50987,oh,88956813
1610,251 Whitman Blvd,44035,41.396606,-82.085335,oh,34590185
1611,2600 Idlewood Rd,44118,41.488735,-81.55863,oh,33663104
1612,1957 Stanhope Kelloggsville Rd,44047,41.779312,-80.62768,oh,203276736
1613,979 Cedar Ridge Dr APT 7,45245,39.041878,-84.25929,oh,51278017
1614,9280 Morgan Rd,44064,41.61822,-81.01196,oh,34146628
1615,3209 Woodbridge Ave,44109,41.46069,-81.704384,oh,33351933
1616,1402 Township Road 179,43311,40.35265,-83.72707,oh,2060685609
1617,938 Sheridan Rd,43302,40.57333,-83.15107,oh,97155277
1618,1901 Parkway Dr,44118,41.507874,-81.5675,oh,33656883
1619,2240 Barry Dr,43211,40.012966,-82.94984,oh,33898815
1620,100 Mallard Dr,40475,37.850723,-84.33305,ky,116022871
1621,582 Seattle Dr,40503,38.010983,-84.540726,ky,77562561
1622,85 Florence Ln,42501,37.034054,-84.61709,ky,115453143
1623,302 S 5th St,42071,36.60809,-88.30319,ky,105764167
1624,433 Coomer Rd,42519,36.966145,-84.592384,ky,115456771
1625,3040 Maddie Ln,40511,38.108673,-84.53965,ky,84433165
1626,133 Lakeshore Dr,40475,37.71912,-84.33348,ky,116024507
1627,3301 Fall Ct,40515,37.97309,-84.46487,ky,77553084
1628,202 Highway 192,42501,37.099648,-84.576996,ky,115456043
1629,846 E Main St,40175,37.80625,-85.96619,ky,96936980
1630,752 Phillips Branch Rd,40953,36.928577,-83.81488,ky,326675087
1631,72 Summer Hill Ave,41071,39.079033,-84.48276,ky,1364539
1632,10503 Evanwood Dr,40228,38.10546,-85.608246,ky,103910048
1633,6506 Cincinnati Rd,40370,38.37457,-84.567894,ky,2060711470
1634,5095 McCormick Rd,40353,38.014313,-83.85969,ky,120261750
1635,10242 State Route 121 S,42076,36.548393,-88.158134,ky,234472794
1636,202 N Jefferson St,42031,36.668404,-88.99435,ky,115345257
1637,5315 Mockingbird Valley Rd,40031,38.40676,-85.46054,ky,105923355
1638,202 Bill St,40165,38.055824,-85.70095,ky,1347589
1639,602 Usher St,42066,36.735554,-88.62644,ky,195012638
1640,1006 Corn Island Ct,40207,38.236103,-85.64959,ky,73490946
1641,4017 Peachtree Ave,40215,38.184998,-85.78041,ky,73609563
1642,4614 Saint Rita Dr,40219,38.130283,-85.67531,ky,73647685
1643,140 Holiday Ct,40330,37.78981,-84.84244,ky,234298218
1644,1319 Rodes Dr,42104,36.973907,-86.45437,ky,97258452
1645,425 North St,42134,36.730206,-86.56858,ky,233964206
1646,2657 Wigginton Pt,40511,38.101097,-84.53518,ky,2081408387
1647,8725 Tates Creek Rd,40515,37.8712,-84.43814,ky,83411501
1648,4603 Shenandoah Dr,40241,38.31038,-85.543396,ky,114046308
1649,1000 Dogwood Cir,40071,38.080097,-85.46444,ky,127153633
1650,1454 Barlow Rd,42087,36.98557,-89.07449,ky,121725052
1651,1091 Shetland Dr,42104,36.919567,-86.48207,ky,97257002
1652,3204 Thousand Oaks Dr,40205,38.20421,-85.6909,ky,73447514
1653,1239 Greenview Ln,40160,37.83069,-85.95588,ky,96936753
1654,3102 Pomeroy Dr,40220,38.201885,-85.63042,ky,73496200
1655,11914 Queen Annes Ct,40245,38.31132,-85.527794,ky,73622970
1656,9307 Aristides Dr,40272,38.117718,-85.87537,ky,73573866
1657,2414 Lake Park Rd APT 3304,40502,38.008675,-84.46161,ky,96932561
1658,58 Archey Br,41144,38.53178,-82.90321,ky,87848425
1659,134 Gaybourne Way,40383,38.03856,-84.66666,ky,194825878
1660,0 Tom Rose Branch Rd,41301,37.647522,-83.49103,ky,2061205805
1661,400 Carter Dr,40175,37.81824,-86.02523,ky,117786049
1662,36 Howdy Doody Dr,42211,36.70405,-87.93434,ky,115466824
1663,2912 Six Mile Ln,40220,38.200832,-85.59138,ky,95195043
1664,16203 State Route 136 E,42452,37.71582,-87.47435,ky,114016083
1665,9207 Foxtail Ct,40014,38.32185,-85.51906,ky,105916569
1666,2548 E Highway 312,40701,36.976475,-84.133385,ky,2065870132
1667,7100 Parklook Ct,40214,38.14786,-85.79557,ky,73583753
1668,104 Stuart Ct,40356,37.899147,-84.595436,ky,1392995
1669,2034 Hegira Rd,42717,36.701126,-85.2701,ky,115294383
1670,1944 Bird Rd,41051,38.88596,-84.53964,ky,1431658
1671,215 Fairlawn Rd,40207,38.251858,-85.66614,ky,73530223
1672,616 Portland Dr,40503,38.012276,-84.54301,ky,77574099
1673,1711 S 4th St,40208,38.22286,-85.76204,ky,73666629
1674,2907 Wallingford Ct,40218,38.198517,-85.63179,ky,73451821
1675,7707 Mackie Ln,40214,38.1393,-85.76339,ky,73652240
1676,750 Fitchburg Rd,40472,37.69672,-83.860176,ky,126652375
1677,6803 Beau Ct,40214,38.167564,-85.80342,ky,73652296
1678,208 Glade St,40403,37.58647,-84.27694,ky,116032782
1679,12 Aqua Vista Ct,41075,39.070675,-84.45927,ky,1375639
1680,0 Dry Bread Rd,41465,37.712185,-82.97193,ky,2060944831
1681,1992 Old Jericho Rd,40031,38.405914,-85.32363,ky,115343387
1682,6368 Albany Rd,42717,36.768345,-85.283,ky,194801987
1683,212 Hampton Place Ct,40118,38.112934,-85.76857,ky,2065153933
1684,6700 Terry Rd,40258,38.15406,-85.869514,ky,73586529
1685,4139 Winnipeg Ct,40515,37.96835,-84.523254,ky,77551880
1686,241 Hickory Dr,40601,38.199253,-84.848145,ky,226793697
1687,421 Forest Ave,41056,38.643,-83.7543,ky,234522175
1688,100 Daffodil Ct,40160,37.811543,-85.93728,ky,96939744
1689,12449 Smith Grove Rd,42717,36.790455,-85.23869,ky,115294293
1690,7201 Old Richmond Rd,40515,37.922276,-84.36625,ky,91584575
1691,105 Mount Martha Trl,41501,37.483112,-82.52586,ky,2061254334
1692,6300 Martys Trl,41051,38.957832,-84.50843,ky,60064556
1693,164 Hogue Hollow Rd,40440,37.594532,-84.835724,ky,234208872
1694,189 Falmouth Dr,40324,38.220066,-84.52897,ky,2082411317
1695,6002 Ridge Creek Ct,40291,38.161846,-85.62795,ky,73541445
1696,4111 Pacelli Pl,40245,38.305244,-85.52956,ky,73495333
1697,285 Greenbriar Rd,42122,36.823475,-86.36437,ky,97273167
1698,45 Traveler Rd,42501,37.004154,-84.461,ky,222927239
1699,116 Miller Dr,40475,37.76794,-84.28673,ky,218463427
1700,276 Bryson Way,40475,37.72586,-84.26809,ky,116029586
1701,3430 Locust Grove Rd,42240,36.770493,-87.52248,ky,218407264
1702,310 W Lansing Ave,40214,38.192398,-85.765915,ky,73611461
1703,2676 Lucca Pl,40509,38.031193,-84.426025,ky,2086225680
1704,80 Mayfield Ct,42701,37.724926,-86.03145,ky,116236438
1705,329 High St,40175,37.805855,-85.98239,ky,96933657
1706,1930 Doores Trl,42054,36.729424,-88.47692,ky,105764181
1707,1426 Waterworks Rd,41071,39.093727,-84.46629,ky,1363695
1708,15 Allbritten Ln,42071,36.580875,-88.247086,ky,105770335
1709,6418 Southside Dr,40214,38.162666,-85.76518,ky,73612148
1710,250 M Cain Rd,40108,37.952976,-86.09371,ky,111287960
1711,824 Edgewood Ave,41102,38.462757,-82.66726,ky,116007183
1712,316 Cleveland Ave,42141,36.992275,-85.920906,ky,112032300
1713,1127 5th Ave,41074,39.114277,-84.463715,ky,1369110
1714,201 Dillon St,42728,37.10815,-85.31596,ky,230202133
1715,1009 Rose Cir,41011,39.072433,-84.53107,ky,1426846
1716,495 West Dr,42071,36.61782,-88.264305,ky,2077777079
1717,2243 Sunrise Cir,40065,38.1737,-85.201866,ky,105938879
1718,3662 Doe Valley Pkwy E,40108,37.99331,-86.104576,ky,246165274
1719,312 State St,42701,37.71418,-85.86955,ky,96950233
1720,1095 Gwinn Island Rd,40422,37.69725,-84.74672,ky,234209272
1721,219 S Main St,40356,37.87853,-84.57425,ky,1397041
1722,113 Evergreen Path,40324,38.209522,-84.580154,ky,225984063
1723,4071 Elizabeth Dr,41051,38.970257,-84.590675,ky,1412972
1724,4229 Edgewood Ct,42303,37.75987,-87.043144,ky,113290116
1725,310 Bandy Willailla Rd,42567,37.292904,-84.49474,ky,115457945
1726,151 Rucker Ave,40324,38.20629,-84.56245,ky,225988692
1727,422 Irish Cir,42240,36.850994,-87.504005,ky,105795660
1728,147 Valleybrook Ave,42101,36.976456,-86.47866,ky,97260909
1729,0 Mill Creek Rd,42634,36.882484,-84.385704,ky,2061590896
1730,214 Fryrear Ln,42701,37.651524,-85.8227,ky,96956117
1731,1014 Ashleigh Way,40004,37.81083,-85.363464,ky,115431648
1732,995 Spencer Pike,40353,38.05802,-83.92124,ky,233957136
1733,1917 Chris Dr,40511,38.091644,-84.47669,ky,77533884
1734,755 Tennevue Est,42003,37.02245,-88.51034,ky,105872404
1735,301 Cedar Point Dr,40741,37.07847,-84.15025,ky,115371458
1736,2806 Wareham Rd,40242,38.28753,-85.584465,ky,131990919
1737,2115 Fox Trail Dr,40031,38.358902,-85.39185,ky,218990775
1738,227 Laffoon Dr,40601,38.204384,-84.82932,ky,326142348
1739,220 Park Wells Rd,40744,37.08216,-84.05089,ky,333112455
1740,3004 Hinsdale Ct,40241,38.291267,-85.579254,ky,73625159
1741,38 Suits Us Dr,42503,37.064285,-84.67625,ky,115445795
1742,740 Cool Springs Rd,40962,37.302567,-83.7559,ky,115288076
1743,4310 Camargo Rd,40353,37.99427,-83.88926,ky,126650888
1744,794 Lambert Rd,42164,36.75089,-86.2437,ky,115247283
1745,4910 Upper Brush Creek Rd,40437,37.40033,-84.891945,ky,115269673
1746,118 Loch Lomond Dr,40517,37.985474,-84.52278,ky,77560862
1747,629 Twin Pines Way,40514,37.97861,-84.54906,ky,77549766
1748,373 Old Ironworks Rd,40391,37.99339,-84.138,ky,230199790
1749,1208 Orchard Dr,40356,37.88877,-84.55214,ky,98537687
1750,17 Bold Ln #1,41031,38.36688,-84.21119,ky,2062351297
1751,271 Bluegrass Dr,42164,36.767437,-86.175125,ky,115246178
1752,2460 Clarks Creek Rd,41035,38.662376,-84.697754,ky,234240613
1753,5063 State Route 81,42325,37.362865,-87.224365,ky,115421567
1754,1622 S 4th St,40208,38.22445,-85.76217,ky,2105900285
1755,67 Miracle Ln,42629,36.852184,-85.22876,ky,306348451
1756,369 Martins Chapel Rd,42055,37.07858,-88.19883,ky,105865541
1757,10214 Blue Ridge Ct,40223,38.24138,-85.56379,ky,73511119
1758,823 Mill Brook Cir,40165,38.0388,-85.619804,ky,113383433
1759,639 Holly Dr,42003,37.05407,-88.625404,ky,105874903
1760,1466 Saint James Ct,40208,38.226974,-85.76381,ky,2086802348
1761,660 E 8th Ave,42101,36.991558,-86.436714,ky,2060796002
1762,125 Trace Branch Rd,42441,37.30957,-87.70791,ky,110362801
1763,895 Modoc Rd,42717,36.7468,-85.318504,ky,115294027
1764,1272 Reliance Ct,41051,38.955868,-84.582825,ky,1413895
1765,5400 Billtown Rd,40299,38.167244,-85.57046,ky,73632021
1766,905 Shoshoni Trl,40324,38.202232,-84.56992,ky,96965136
1767,114 N 1st St,40310,37.754208,-84.77016,ky,2061291744
1768,222 Brown Ct,42303,37.78098,-87.08481,ky,215061824
1769,2027 Wisemantown Rd,40336,37.676624,-84.00944,ky,233920453
1770,1924 Prosperity Ct,41091,38.953342,-84.675186,ky,306438043
1771,1445 Peachtree Ln,42103,36.927742,-86.39598,ky,97267546
1772,1009 Rogers Ct,42303,37.737453,-87.09706,ky,96914479
1773,1992 Brynell Dr,40505,38.06148,-84.44141,ky,77523070
1774,8308 Shepherdsville Rd,40219,38.128082,-85.66433,ky,95200143
1775,134 Stone Wall Path,40324,38.211235,-84.59385,ky,2093557352
1776,80 Meade Br,41635,37.5182,-82.638466,ky,2083893342
1777,630 Mount Moriah Rd,40311,38.364067,-84.04961,ky,2060682428
